"STATION","DATE","REPORT_TYPE","SOURCE","AWND","BackupDirection","BackupDistance","BackupDistanceUnit","BackupElements","BackupElevation","BackupElevationUnit","BackupEquipment","BackupLatitude","BackupLongitude","BackupName","CDSD","CLDD","DSNW","DailyAverageDewPointTemperature","DailyAverageDryBulbTemperature","DailyAverageRelativeHumidity","DailyAverageSeaLevelPressure","DailyAverageStationPressure","DailyAverageWetBulbTemperature","DailyAverageWindSpeed","DailyCoolingDegreeDays","DailyDepartureFromNormalAverageTemperature","DailyHeatingDegreeDays","DailyMaximumDryBulbTemperature","DailyMinimumDryBulbTemperature","DailyPeakWindDirection","DailyPeakWindSpeed","DailyPrecipitation","DailySnowDepth","DailySnowfall","DailySustainedWindDirection","DailySustainedWindSpeed","DailyWeather","HDSD","HTDD","HeavyFog","HourlyAltimeterSetting","HourlyDewPointTemperature","HourlyDryBulbTemperature","HourlyPrecipitation","HourlyPresentWeatherType","HourlyPressureChange","HourlyPressureTendency","HourlyRelativeHumidity","HourlySeaLevelPressure","HourlySkyConditions","HourlyStationPressure","HourlyVisibility","HourlyWetBulbTemperature","HourlyWindDirection","HourlyWindGustSpeed","HourlyWindSpeed","MonthlyAverageRH","MonthlyDaysWithGT001Precip","MonthlyDaysWithGT010Precip","MonthlyDaysWithGT32Temp","MonthlyDaysWithGT90Temp","MonthlyDaysWithLT0Temp","MonthlyDaysWithLT32Temp","MonthlyDepartureFromNormalAverageTemperature","MonthlyDepartureFromNormalCoolingDegreeDays","MonthlyDepartureFromNormalHeatingDegreeDays","MonthlyDepartureFromNormalMaximumTemperature","MonthlyDepartureFromNormalMinimumTemperature","MonthlyDepartureFromNormalPrecipitation","MonthlyDewpointTemperature","MonthlyGreatestPrecip","MonthlyGreatestPrecipDate","MonthlyGreatestSnowDepth","MonthlyGreatestSnowDepthDate","MonthlyGreatestSnowfall","MonthlyGreatestSnowfallDate","MonthlyMaxSeaLevelPressureValue","MonthlyMaxSeaLevelPressureValueDate","MonthlyMaxSeaLevelPressureValueTime","MonthlyMaximumTemperature","MonthlyMeanTemperature","MonthlyMinSeaLevelPressureValue","MonthlyMinSeaLevelPressureValueDate","MonthlyMinSeaLevelPressureValueTime","MonthlyMinimumTemperature","MonthlySeaLevelPressure","MonthlyStationPressure","MonthlyTotalLiquidPrecipitation","MonthlyTotalSnowfall","MonthlyWetBulb","NormalsCoolingDegreeDay","NormalsHeatingDegreeDay","REM","REPORT_TYPE","SOURCE","ShortDurationEndDate005","ShortDurationEndDate010","ShortDurationEndDate015","ShortDurationEndDate020","ShortDurationEndDate030","ShortDurationEndDate045","ShortDurationEndDate060","ShortDurationEndDate080","ShortDurationEndDate100","ShortDurationEndDate120","ShortDurationEndDate150","ShortDurationEndDate180","ShortDurationPrecipitationValue005","ShortDurationPrecipitationValue010","ShortDurationPrecipitationValue015","ShortDurationPrecipitationValue020","ShortDurationPrecipitationValue030","ShortDurationPrecipitationValue045","ShortDurationPrecipitationValue060","ShortDurationPrecipitationValue080","ShortDurationPrecipitationValue100","ShortDurationPrecipitationValue120","ShortDurationPrecipitationValue150","ShortDurationPrecipitationValue180","Sunrise","Sunset","TStorms","WindEquipmentChangeDate"
"78543011640","2020-05-10T00:53:00","FM-15","7","","","","","","","","","","","","","","","","","","","","","","","","","","","","","","","","","","","","","","30.07","70","80","0.00","","","","71","30.07","CLR:00","30.06","10.00","73","080","","10","","","","","","","","","","","","","","","","","","","","","","","","","","","","","","","","","","","","","MET09005/10/20 00:53:02 METAR TIST 100453Z 08009KT 10SM CLR 27/21 A3007 RMK AO2 SLP182 T02670211","FM-15","7","","","","","","","","","","","","","","","","","","","","","","","","","","","","2009-08-10"
"78543011640","2020-05-10T01:53:00","FM-15","7","","","","","","","","","","","","","","","","","","","","","","","","","","","","","","","","","","","","","","30.06","70","80","0.00","","+0.05","6","71","30.06","CLR:00","30.05","10.00","73","080","","8","","","","","","","","","","","","","","","","","","","","","","","","","","","","","","","","","","","","","MET10805/10/20 01:53:02 METAR TIST 100553Z 08007KT 10SM CLR 27/21 A3006 RMK AO2 SLP178 T02670211 10278 20261 56016","FM-15","7","","","","","","","","","","","","","","","","","","","","","","","","","","","","2009-08-10"
"78543011640","2020-05-10T02:00:00","FM-12","4","","","","","","","","","","","","","","","","","","","","","","","","","","","","","","","","","","","","","","","70","80","","","+0.05","6","71","30.06","","","9.94","","080","","8","","","","","","","","","","","","","","","","","","","","","","","","","","","","","","","","","","","","","SYN08078543 35966 00807 10267 20211 30098 40178 56016 90553 333 10283 20261 555 91006=","FM-12","4","","","","","","","","","","","","","","","","","","","","","","","","","","","","2009-08-10"
"78543011640","2020-05-10T02:53:00","FM-15","7","","","","","","","","","","","","","","","","","","","","","","","","","","","","","","","","","","","","","","30.04","70","80","0.00","","","","71","30.04","CLR:00","30.03","10.00","73","090","","9","","","","","","","","","","","","","","","","","","","","","","","","","","","","","","","","","","","","","MET09005/10/20 02:53:02 METAR TIST 100653Z 09008KT 10SM CLR 27/21 A3004 RMK AO2 SLP173 T02670211","FM-15","7","","","","","","","","","","","","","","","","","","","","","","","","","","","","2009-08-10"
"78543011640","2020-05-10T03:53:00","FM-15","7","","","","","","","","","","","","","","","","","","","","","","","","","","","","","","","","","","","","","","30.04","70","80","0.00","","","","71","30.04","CLR:00","30.03","10.00","73","090","","13","","","","","","","","","","","","","","","","","","","","","","","","","","","","","","","","","","","","","MET09005/10/20 03:53:02 METAR TIST 100753Z 09011KT 10SM CLR 27/21 A3004 RMK AO2 SLP174 T02670211","FM-15","7","","","","","","","","","","","","","","","","","","","","","","","","","","","","2009-08-10"
"78543011640","2020-05-10T04:53:00","FM-15","7","","","","","","","","","","","","","","","","","","","","","","","","","","","","","","","","","","","","","","30.05","68","80","0.00","","+0.01","5","67","30.05","CLR:00","30.04","10.00","72","100","","13","","","","","","","","","","","","","","","","","","","","","","","","","","","","","","","","","","","","","MET09605/10/20 04:53:02 METAR TIST 100853Z 10011KT 10SM CLR 27/20 A3005 RMK AO2 SLP176 T02670200 55002","FM-15","7","","","","","","","","","","","","","","","","","","","","","","","","","","","","2009-08-10"
"78543011640","2020-05-10T05:53:00","FM-15","7","","","","","","","","","","","","","","","","","","","","","","","","","","","","","","","","","","","","","","30.07","69","80","0.00","","","","69","30.07","FEW:02 28","30.06","10.00","73","090","","13","","","","","","","","","","","","","","","","","","","","","","","","","","","","","","","","","","","","","MET09305/10/20 05:53:02 METAR TIST 100953Z 09011KT 10SM FEW028 27/21 A3007 RMK AO2 SLP184 T02670206","FM-15","7","","","","","","","","","","","","","","","","","","","","","","","","","","","","2009-08-10"
"78543011640","2020-05-10T06:53:00","FM-15","7","","","","","","","","","","","","","","","","","","","","","","","","","","","","","","","","","","","","","","30.09","69","81","0.00","","","","67","30.09","SCT:04 29 BKN:07 37","30.08","10.00","73","090","","10","","","","","","","","","","","","","","","","","","","","","","","","","","","","","","","","","","","","","MET10505/10/20 06:53:02 METAR TIST 101053Z 09009KT 10SM SCT029 BKN037 27/21 A3009 RMK AO2 SLP190 T02720206 (DR)","FM-15","7","","","","","","","","","","","","","","","","","","","","","","","","","","","","2009-08-10"
"78543011640","2020-05-10T07:53:00","FM-15","7","","","","","","","","","","","","","","","","","","","","","","","","","","","","","","","","","","","","","","30.10","68","83","0.00","","-0.05","1","61","30.10","SCT:04 29 BKN:07 37","30.09","10.00","73","110","25","20","","","","","","","","","","","","","","","","","","","","","","","","","","","","","","","","","","","","","MET12605/10/20 07:53:02 METAR TIST 101153Z 11017G22KT 10SM SCT029 BKN037 28/20 A3010 RMK AO2 SLP194 T02830200 10289 20261 51017 (DR)","FM-15","7","","","","","","","","","","","","","","","","","","","","","","","","","","","","2009-08-10"
"78543011640","2020-05-10T08:00:00","FM-12","4","","","","","","","","","","","","","","","","","","","","","","","","","","","","","","","","","","","","","","","68","83","","","-0.05","1","61","30.10","26","","9.94","","110","","20","","","","","","","","","","","","","","","","","","","","","","","","","","","","","","","","","","","","","SYN08678543 32566 61117 10283 20200 30112 40194 51017 91153 333 10306 20261 91022 555 91012=","FM-12","4","","","","","","","","","","","","","","","","","","","","","","","","","","","","2009-08-10"
"78543011640","2020-05-10T08:53:00","FM-15","7","","","","","","","","","","","","","","","","","","","","","","","","","","","","","","","","","","","","","","30.11","69","84","0.00","","","","61","30.11","CLR:00","30.10","10.00","74","120","24","17","","","","","","","","","","","","","","","","","","","","","","","","","","","","","","","","","","","","","MET09805/10/20 08:53:02 METAR TIST 101253Z 12015G21KT 10SM CLR 29/21 A3011 RMK AO2 SLP198 T02890206 (DR)","FM-15","7","","","","","","","","","","","","","","","","","","","","","","","","","","","","2009-08-10"
"78543011640","2020-05-10T09:53:00","FM-15","7","","","","","","","","","","","","","","","","","","","","","","","","","","","","","","","","","","","","","","30.11","68","85","0.00","","","","57","30.11","FEW:02 37","30.10","10.00","74","120","","16","","","","","","","","","","","","","","","","","","","","","","","","","","","","","","","","","","","","","MET09805/10/20 09:53:02 METAR TIST 101353Z 12014KT 10SM FEW037 29/20 A3011 RMK AO2 SLP197 T02940200 (SS)","FM-15","7","","","","","","","","","","","","","","","","","","","","","","","","","","","","2009-08-10"
"78543011640","2020-05-10T10:53:00","FM-15","7","","","","","","","","","","","","","","","","","","","","","","","","","","","","","","","","","","","","","","30.11","68","87","0.00","","-0.01","0","53","30.11","FEW:02 37","30.10","10.00","74","120","24","20","","","","","","","","","","","","","","","","","","","","","","","","","","","","","","","","","","","","","MET10705/10/20 10:53:02 METAR TIST 101453Z 12017G21KT 10SM FEW037 31/20 A3011 RMK AO2 SLP195 T03060200 50002 (SS)","FM-15","7","","","","","","","","","","","","","","","","","","","","","","","","","","","","2009-08-10"
"78543011640","2020-05-10T11:53:00","FM-15","7","","","","","","","","","","","","","","","","","","","","","","","","","","","","","","","","","","","","","","30.09","69","87","0.00","","","","55","30.09","CLR:00","30.08","10.00","75","110","28","18","","","","","","","","","","","","","","","","","","","","","","","","","","","","","","","","","","","","","MET09805/10/20 11:53:02 METAR TIST 101553Z 11016G24KT 10SM CLR 31/21 A3009 RMK AO2 SLP191 T03060206 (SS)","FM-15","7","","","","","","","","","","","","","","","","","","","","","","","","","","","","2009-08-10"
"78543011640","2020-05-10T12:53:00","FM-15","7","","","","","","","","","","","","","","","","","","","","","","","","","","","","","","","","","","","","","","30.08","67","87","0.00","","","","51","30.08","CLR:00","30.07","10.00","74","120","25","16","","","","","","","","","","","","","","","","","","","","","","","","","","","","","","","","","","","","","MET09805/10/20 12:53:02 METAR TIST 101653Z 12014G22KT 10SM CLR 31/19 A3008 RMK AO2 SLP185 T03060194 (SS)","FM-15","7","","","","","","","","","","","","","","","","","","","","","","","","","","","","2009-08-10"
"78543011640","2020-05-10T13:53:00","FM-15","7","","","","","","","","","","","","","","","","","","","","","","","","","","","","","","","","","","","","","","30.05","68","87","0.00","","+0.06","8","53","30.05","CLR:00","30.04","10.00","74","120","","17","","","","","","","","","","","","","","","","","","","","","","","","","","","","","","","","","","","","","MET11305/10/20 13:53:02 METAR TIST 101753Z 12015KT 10SM CLR 31/20 A3005 RMK AO2 SLP176 T03060200 10317 20278 58019 (SS)","FM-15","7","","","","","","","","","","","","","","","","","","","","","","","","","","","","2009-08-10"
"78543011640","2020-05-10T14:00:00","FM-12","4","","","","","","","","","","","","","","","","","","","","","","","","","","","","","","","","","","","","","","","68","87","","","+0.06","8","53","30.05","","","9.94","","120","","17","","","","","","","","","","","","","","","","","","","","","","","","","","","","","","","","","","","","","SYN08078543 32966 01215 10306 20200 30095 40176 58019 91753 333 10317 20278 555 91018=","FM-12","4","","","","","","","","","","","","","","","","","","","","","","","","","","","","2009-08-10"
"78543011640","2020-05-10T14:53:00","FM-15","7","","","","","","","","","","","","","","","","","","","","","","","","","","","","","","","","","","","","","","30.03","67","87","0.00","","","","51","30.03","CLR:00","30.02","10.00","74","120","","16","","","","","","","","","","","","","","","","","","","","","","","","","","","","","","","","","","","","","MET09505/10/20 14:53:02 METAR TIST 101853Z 12014KT 10SM CLR 31/19 A3003 RMK AO2 SLP168 T03060194 (SS)","FM-15","7","","","","","","","","","","","","","","","","","","","","","","","","","","","","2009-08-10"
"78543011640","2020-05-10T15:53:00","FM-15","7","","","","","","","","","","","","","","","","","","","","","","","","","","","","","","","","","","","","","","30.01","67","87","0.00","","","","51","30.01","CLR:00","30.00","10.00","74","120","25","18","","","","","","","","","","","","","","","","","","","","","","","","","","","","","","","","","","","","","MET09805/10/20 15:53:02 METAR TIST 101953Z 12016G22KT 10SM CLR 31/19 A3001 RMK AO2 SLP163 T03060194 (SS)","FM-15","7","","","","","","","","","","","","","","","","","","","","","","","","","","","","2009-08-10"
"78543011640","2020-05-10T16:53:00","FM-15","7","","","","","","","","","","","","","","","","","","","","","","","","","","","","","","","","","","","","","","30.01","69","85","0.00","","+0.04","6","59","30.01","FEW:02 37 FEW:02 47 BKN:07 55","30.00","10.00","74","110","25","21","","","","","","","","","","","","","","","","","","","","","","","","","","","","","","","","","","","","","MET12105/10/20 16:53:02 METAR TIST 102053Z 11018G22KT 10SM FEW037 FEW047 BKN055 29/21 A3001 RMK AO2 SLP162 T02940206 56014 (ND)","FM-15","7","","","","","","","","","","","","","","","","","","","","","","","","","","","","2009-08-10"
"78543011640","2020-05-10T17:53:00","FM-15","7","","","","","","","","","","","","","","","","","","","","","","","","","","","","","","","","","","","","","","30.01","71","83","T","","","","67","30.01","CLR:00","30.00","10.00","75","110","24","14","","","","","","","","","","","","","","","","","","","","","","","","","","","","","","","","","","","","","MET11305/10/20 17:53:02 METAR TIST 102153Z 11012G21KT 10SM CLR 28/22 A3001 RMK AO2 RAB04E17 SLP164 P0000 T02830217 (ND)","FM-15","7","","","","","","","","","","","","","","","","","","","","","","","","","","","","2009-08-10"
"78543011640","2020-05-10T18:53:00","FM-15","7","","","","","","","","","","","","","","","","","","","","","","","","","","","","","","","","","","","","","","30.02","70","82","0.00","","","","67","30.01","FEW:02 35","30.01","10.00","74","100","","17","","","","","","","","","","","","","","","","","","","","","","","","","","","","","","","","","","","","","MET09805/10/20 18:53:02 METAR TIST 102253Z 10015KT 10SM FEW035 28/21 A3002 RMK AO2 SLP164 T02780211 (ND)","FM-15","7","","","","","","","","","","","","","","","","","","","","","","","","","","","","2009-08-10"
"78543011640","2020-05-10T19:53:00","FM-15","7","","","","","","","","","","","","","","","","","","","","","","","","","","","","","","","","","","","","","","30.03","70","82","0.00","","-0.02","3","67","30.03","FEW:02 27","30.02","10.00","74","110","26","20","","","","","","","","","","","","","","","","","","","","","","","","","","","","","","","","","","","","","MET12505/10/20 19:53:02 METAR TIST 102353Z 11017G23KT 10SM FEW027 28/21 A3003 RMK AO2 SLP169 60000 T02780211 10317 20272 53007 (ND)","FM-15","7","","","","","","","","","","","","","","","","","","","","","","","","","","","","2009-08-10"
"78543011640","2020-05-10T20:00:00","FM-12","4","","","","","","","","","","","","","","","","","","","","","","","","","","","","","","","","","","","","","","","70","82","","","-0.02","3","67","30.03","26","","9.94","","110","","20","","","","","","","","","","","","","","","","","","","","","","","","","","","","","","","","","","","","","SYN09278543 12566 21117 10278 20211 30088 40169 53007 69901 92353 333 10317 20261 91023 555 91100=","FM-12","4","","","","","","","","","","","","","","","","","","","","","","","","","","","","2009-08-10"
"78543011640","2020-05-10T20:53:00","FM-15","7","","","","","","","","","","","","","","","","","","","","","","","","","","","","","","","","","","","","","","30.04","72","81","T","-RA:02 |RA |RA","","","74","30.04","SCT:04 26 SCT:04 31","30.03","10.00","75","090","","13","","","","","","","","","","","","","","","","","","","","","","","","","","","","","","","","","","","","","MET11605/10/20 20:53:01 METAR TIST 110053Z 09011KT 10SM -RA SCT026 SCT031 27/22 A3004 RMK AO2 RAB42 SLP174 P0000 T02720222","FM-15","7","","","","","","","","","","","","","","","","","","","","","","","","","","","","2009-08-10"
"78543011640","2020-05-10T21:53:00","FM-15","7","","","","","","","","","","","","","","","","","","","","","","","","","","","","","","","","","","","","","","30.05","72","81","0.00","","","","74","30.05","FEW:02 27 SCT:04 70","30.04","10.00","75","110","","14","","","","","","","","","","","","","","","","","","","","","","","","","","","","","","","","","","","","","MET11405/10/20 21:53:01 METAR TIST 110153Z 11012KT 10SM FEW027 SCT070 27/22 A3005 RMK AO2 RAE0054 SLP175 P0000 T02720222","FM-15","7","","","","","","","","","","","","","","","","","","","","","","","","","","","","2009-08-10"
"78543011640","2020-05-10T22:53:00","FM-15","7","","","","","","","","","","","","","","","","","","","","","","","","","","","","","","","","","","","","","","30.05","71","80","0.00","","-0.02","1","74","30.05","CLR:00","30.04","10.00","74","100","","14","","","","","","","","","","","","","","","","","","","","","","","","","","","","","","","","","","","","","MET10205/10/20 22:53:01 METAR TIST 110253Z 10012KT 10SM CLR 27/22 A3005 RMK AO2 SLP175 60000 T02670217 51006","FM-15","7","","","","","","","","","","","","","","","","","","","","","","","","","","","","2009-08-10"
"78543011640","2020-05-10T23:53:00","FM-15","7","","","","","","","","","","","","","","","","","","","","","","","","","","","","","","","","","","","","","","30.03","71","80","0.00","","","","74","30.03","CLR:00","30.02","10.00","74","100","","10","","","","","","","","","","","","","","","","","","","","","","","","","","","","","","","","","","","","","MET10005/10/20 23:53:02 METAR TIST 110353Z 10009KT 10SM CLR 27/22 A3003 RMK AO2 SLP170 T02670217 403170261","FM-15","7","","","","","","","","","","","","","","","","","","","","","","","","","","","","2009-08-10"
"78543011640","2020-05-10T23:59:00","SOD  ","6","","","","","","","","","","","","","","","69","84","64","30.06","30.04","74","14.9","19","2.4","0","89","79","120","28","T","","","120","22","RA","","","","","","","","","","","","","","","","","","","","","","","","","","","","","","","","","","","","","","","","","","","","","","","","","","","","","","","","SOD73024 HR PRECIPITATION (IN):T     24 HR MAX TEMP (F):89 24 HR MAX TEMP TIME (LST):1446 24 HR MIN TEMP (F):79 24 HR MIN TEMP TIME (LST):0604 AVERAGE STATION PRESSURE:30.040 MINIMUM SEA LEVEL PRESSURE:30.00 TIME OF OCCURRENCE:1659 PEAK WIND SPEED (MPH):28  PEAK WIND DIR (DEG):120 PEAK WIND TIME (LST):1826  FASTEST 2MIN SPEED (MPH):22 FASTEST 2MIN DIR (DEG):120 FASTEST 2MIN TIME (LST):1500 AVERAGE WIND SPEED (MPH):14.9 24 HR AVG TEMP (F):84 HEATING DEGREE DAYS:0   COOLING DEGREE DAYS:19  LATEST DAY MAX TEMP (0700-1900 LST):89  LATEST NIGHT MIN TEMP(1900-0800 LST):79 HOURLY INCREMENTAL PRECIPITATION VALUES (IN):.00 0.00 0.00 0.00 0.00 0.00 0.00 0.00 0.00 0.00 0.00 0.00 0.00 0.00 0.00 0.00 0.00 T    0.00 0.00 T    0.00 0.00 0.00","SOD  ","6","","","","","","","","","","","","","","","","","","","","","","","","","0548","1845","","2009-08-10"
"78543011640","2020-05-11T00:53:00","FM-15","7","","","","","","","","","","","","","","","","","","","","","","","","","","","","","","","","","","","","","","30.03","71","79","0.00","","","","77","30.03","FEW:02 26 BKN:07 70","30.02","10.00","74","090","","14","","","","","","","","","","","","","","","","","","","","","","","","","","","","","","","","","","","","","MET10005/11/20 00:53:02 METAR TIST 110453Z 09012KT 10SM FEW026 BKN070 26/22 A3003 RMK AO2 SLP168 T02610217","FM-15","7","","","","","","","","","","","","","","","","","","","","","","","","","","","","2009-08-10"
"78543011640","2020-05-11T01:53:00","FM-15","7","","","","","","","","","","","","","","","","","","","","","","","","","","","","","","","","","","","","","","30.00","72","80","0.00","","+0.04","8","76","30.00","FEW:02 26 SCT:04 35 BKN:07 46","29.99","10.00","75","100","","14","","","","","","","","","","","","","","","","","","","","","","","","","","","","","","","","","","","","","MET13105/11/20 01:53:02 METAR TIST 110553Z 10012KT 10SM FEW026 SCT035 BKN046 27/22 A3000 RMK AO2 SLP160 60000 T02670222 10278 20261 58015","FM-15","7","","","","","","","","","","","","","","","","","","","","","","","","","","","","2009-08-10"
"78543011640","2020-05-11T02:00:00","FM-12","4","","","","","","","","","","","","","","","","","","","","","","","","","","","","","","","","","","","","","","","72","80","","","","","76","","26","","9.94","","090","","11","","","","","","","","","","","","","","","","","","","","","","","","","","","","","","","","","","","","","SYN05278543 35566 80910 10267 20222 30078 90611 555 91106=","FM-12","4","","","","","","","","","","","","","","","","","","","","","","","","","","","","2009-08-10"
"78543011640","2020-05-11T02:11:00","FM-15","4","","","","","","","","","","","","","","","","","","","","","","","","","","","","","","","","","","","","","","30.00","72","80","","","","","76","","BKN:07 24 BKN:07 35 OVC:08 42","","10.00","","090","","11","","","","","","","","","","","","","","","","","","","","","","","","","","","","","","","","","","","","","MET088METAR TIST 110611Z AUTO 09010KT 10SM BKN024 BKN035 OVC042 27/22 A3000 RMK AO2 T02670222=","FM-15","4","","","","","","","","","","","","","","","","","","","","","","","","","","","","2009-08-10"
"78543011640","2020-05-11T02:11:00","FM-16","4","","","","","","","","","","","","","","","","","","","","","","","","","","","","","","","","","","","","","","30.00","72","80","","","","","76","","BKN:07 24 BKN:07 35 OVC:08 42","","10.00","","090","","11","","","","","","","","","","","","","","","","","","","","","","","","","","","","","","","","","","","","","MET088SPECI TIST 110611Z AUTO 09010KT 10SM BKN024 BKN035 OVC042 27/22 A3000 RMK AO2 T02670222=","FM-16","4","","","","","","","","","","","","","","","","","","","","","","","","","","","","2009-08-10"
"78543011640","2020-05-11T02:50:00","FM-15","4","","","","","","","","","","","","","","","","","","","","","","","","","","","","","","","","","","","","","","29.99","73","79","T","","","","84","","SCT:04 22 BKN:07 42 OVC:08 50","","10.00","","080","","11","","","","","","","","","","","","","","","","","","","","","","","","","","","","","","","","","","","","","MET093METAR TIST 110650Z AUTO 08010KT 10SM SCT022 BKN042 OVC050 26/23 A2999 RMK AO2 RAB13E45 P0000=","FM-15","4","","","","","","","","","","","","","","","","","","","","","","","","","","","","2009-08-10"
"78543011640","2020-05-11T02:50:00","FM-16","7","","","","","","","","","","","","","","","","","","","","","","","","","","","","","","","","","","","","","","29.99","73","79","T","","","","84","","SCT:04 22 BKN:07 42 OVC:08 50","29.98","10.00","75","080","","11","","","","","","","","","","","","","","","","","","","","","","","","","","","","","","","","","","","","","MET10505/11/20 02:50:02 SPECI TIST 110650Z 08010KT 10SM SCT022 BKN042 OVC050 26/23 A2999 RMK AO2 RAB13E45 P0000","FM-16","7","","","","","","","","","","","","","","","","","","","","","","","","","","","","2009-08-10"
"78543011640","2020-05-11T02:53:00","FM-15","7","","","","","","","","","","","","","","","","","","","","","","","","","","","","","","","","","","","","","","30.00","73","78","T","","","","85","30.00","SCT:04 20 BKN:07 36 OVC:08 55","29.99","10.00","75","080","","13","","","","","","","","","","","","","","","","","","","","","","","","","","","","","","","","","","","","","MET12205/11/20 02:53:02 METAR TIST 110653Z 08011KT 10SM SCT020 BKN036 OVC055 26/23 A3000 RMK AO2 RAB13E45 SLP158 P0000 T02560228","FM-15","7","","","","","","","","","","","","","","","","","","","","","","","","","","","","2009-08-10"
"78543011640","2020-05-11T03:53:00","FM-15","7","","","","","","","","","","","","","","","","","","","","","","","","","","","","","","","","","","","","","","30.00","72","78","T","","","","82","30.00","FEW:02 26 SCT:04 50 BKN:07 70","29.99","10.00","74","080","","9","","","","","","","","","","","","","","","","","","","","","","","","","","","","","","","","","","","","","MET12405/11/20 03:53:02 METAR TIST 110753Z 08008KT 10SM FEW026 SCT050 BKN070 26/22 A3000 RMK AO2 RAB0656E06 SLP159 P0000 T02560222","FM-15","7","","","","","","","","","","","","","","","","","","","","","","","","","","","","2009-08-10"
"78543011640","2020-05-11T04:53:00","FM-15","7","","","","","","","","","","","","","","","","","","","","","","","","","","","","","","","","","","","","","","30.01","72","79","0.00","","-0.01","3","79","30.01","FEW:02 24 BKN:07 43 BKN:07 50","30.00","10.00","74","090","","10","","","","","","","","","","","","","","","","","","","","","","","","","","","","","","","","","","","","","MET11905/11/20 04:53:02 METAR TIST 110853Z 09009KT 10SM FEW024 BKN043 BKN050 26/22 A3001 RMK AO2 SLP162 60000 T02610222 53005","FM-15","7","","","","","","","","","","","","","","","","","","","","","","","","","","","","2009-08-10"
"78543011640","2020-05-11T05:37:00","FM-15","4","","","","","","","","","","","","","","","","","","","","","","","","","","","","","","","","","","","","","","30.02","73","77","T","|RA |","","","88","","FEW:02 13 BKN:07 19 OVC:08 44","","6.00","","130","","16","","","","","","","","","","","","","","","","","","","","","","","","","","","","","","","","","","","","","MET106METAR TIST 110937Z AUTO 13014KT 6SM -RA BR FEW013 BKN019 OVC044 25/23 A3002 RMK AO2 RAB22 P0000 T02500228=","FM-15","4","","","","","","","","","","","","","","","","","","","","","","","","","","","","2009-08-10"
"78543011640","2020-05-11T05:37:00","FM-16","4","","","","","","","","","","","","","","","","","","","","","","","","","","","","","","","","","","","","","","30.02","73","77","T","|RA |","","","88","","FEW:02 13 BKN:07 19 OVC:08 44","","6.00","","130","","16","","","","","","","","","","","","","","","","","","","","","","","","","","","","","","","","","","","","","MET106SPECI TIST 110937Z AUTO 13014KT 6SM -RA BR FEW013 BKN019 OVC044 25/23 A3002 RMK AO2 RAB22 P0000 T02500228=","FM-16","4","","","","","","","","","","","","","","","","","","","","","","","","","","","","2009-08-10"
"78543011640","2020-05-11T05:53:00","FM-15","7","","","","","","","","","","","","","","","","","","","","","","","","","","","","","","","","","","","","","","30.02","73","78","T","-RA:02 |RA |RA","","","85","30.02","FEW:02 13 BKN:07 26 OVC:08 33","30.01","10.00","75","090","18","8","","","","","","","","","","","","","","","","","","","","","","","","","","","","","","","","","","","","","MET12605/11/20 05:53:02 METAR TIST 110953Z 09007G16KT 10SM -RA FEW013 BKN026 OVC033 26/23 A3002 RMK AO2 RAB22 SLP167 P0000 T02560228","FM-15","7","","","","","","","","","","","","","","","","","","","","","","","","","","","","2009-08-10"
"78543011640","2020-05-11T06:14:00","FM-15","4","","","","","","","","","","","","","","","","","","","","","","","","","","","","","","","","","","","","","","30.02","73","78","T","","","","85","","SCT:04 26 SCT:04 34 BKN:07 50","","10.00","","090","","9","","","","","","","","","","","","","","","","","","","","","","","","","","","","","","","","","","","","","MET100METAR TIST 111014Z AUTO 09008KT 10SM SCT026 SCT034 BKN050 26/23 A3002 RMK AO2 RAE01 P0000 T02560228=","FM-15","4","","","","","","","","","","","","","","","","","","","","","","","","","","","","2009-08-10"
"78543011640","2020-05-11T06:14:00","FM-16","4","","","","","","","","","","","","","","","","","","","","","","","","","","","","","","","","","","","","","","30.02","73","78","T","","","","85","","SCT:04 26 SCT:04 34 BKN:07 50","","10.00","","090","","9","","","","","","","","","","","","","","","","","","","","","","","","","","","","","","","","","","","","","MET100SPECI TIST 111014Z AUTO 09008KT 10SM SCT026 SCT034 BKN050 26/23 A3002 RMK AO2 RAE01 P0000 T02560228=","FM-16","4","","","","","","","","","","","","","","","","","","","","","","","","","","","","2009-08-10"
"78543011640","2020-05-11T06:53:00","FM-15","7","","","","","","","","","","","","","","","","","","","","","","","","","","","","","","","","","","","","","","30.03","70","80","T","","","","71","30.03","FEW:02 70","30.02","10.00","73","110","20","15","","","","","","","","","","","","","","","","","","","","","","","","","","","","","","","","","","","","","MET11305/11/20 06:53:02 METAR TIST 111053Z 11013G17KT 10SM FEW070 27/21 A3003 RMK AO2 RAE01 SLP169 P0000 T02670211 (SS)","FM-15","7","","","","","","","","","","","","","","","","","","","","","","","","","","","","2009-08-10"
"78543011640","2020-05-11T07:53:00","FM-15","7","","","","","","","","","","","","","","","","","","","","","","","","","","","","","","","","","","","","","","30.04","69","82","0.00","","-0.04","2","65","30.04","CLR:00","30.03","10.00","73","110","","16","","","","","","","","","","","","","","","","","","","","","","","","","","","","","","","","","","","","","MET11905/11/20 07:53:02 METAR TIST 111153Z 11014KT 10SM CLR 28/21 A3004 RMK AO2 SLP174 60000 T02780206 10278 20250 52012 (SS)","FM-15","7","","","","","","","","","","","","","","","","","","","","","","","","","","","","2009-08-10"
"78543011640","2020-05-11T08:00:00","FM-12","4","","","","","","","","","","","","","","","","","","","","","","","","","","","","","","","","","","","","","","","69","82","","","-0.04","2","65","30.04","","","9.94","","110","","16","","","","","","","","","","","","","","","","","","","","","","","","","","","","","","","","","","","","","SYN08078543 12966 01114 10278 20206 30092 40174 52012 69901 91153 333 10317 555 91112=","FM-12","4","","","","","","","","","","","","","","","","","","","","","","","","","","","","2009-08-10"
"78543011640","2020-05-11T08:53:00","FM-15","7","","","","","","","","","","","","","","","","","","","","","","","","","","","","","","","","","","","","","","30.05","71","83","0.00","","","","67","30.05","CLR:00","30.04","10.00","75","120","","15","","","","","","","","","","","","","","","","","","","","","","","","","","","","","","","","","","","","","MET09505/11/20 08:53:02 METAR TIST 111253Z 12013KT 10SM CLR 28/22 A3005 RMK AO2 SLP175 T02830217 (SS)","FM-15","7","","","","","","","","","","","","","","","","","","","","","","","","","","","","2009-08-10"
"78543011640","2020-05-11T09:53:00","FM-15","7","","","","","","","","","","","","","","","","","","","","","","","","","","","","","","","","","","","","","","30.06","70","85","0.00","","","","61","30.06","CLR:00","30.05","10.00","75","120","26","15","","","","","","","","","","","","","","","","","","","","","","","","","","","","","","","","","","","","","MET09805/11/20 09:53:02 METAR TIST 111353Z 12013G23KT 10SM CLR 29/21 A3006 RMK AO2 SLP178 T02940211 (SS)","FM-15","7","","","","","","","","","","","","","","","","","","","","","","","","","","","","2009-08-10"
"78543011640","2020-05-11T10:53:00","FM-15","7","","","","","","","","","","","","","","","","","","","","","","","","","","","","","","","","","","","","","","30.05","71","86","0.00","","-0.01","0","61","30.05","CLR:00","30.04","10.00","76","110","","18","","","","","","","","","","","","","","","","","","","","","","","","","","","","","","","","","","","","","MET10105/11/20 10:53:02 METAR TIST 111453Z 11016KT 10SM CLR 30/22 A3005 RMK AO2 SLP176 T03000217 50002 (SS)","FM-15","7","","","","","","","","","","","","","","","","","","","","","","","","","","","","2009-08-10"
"78543011640","2020-05-11T11:53:00","FM-15","7","","","","","","","","","","","","","","","","","","","","","","","","","","","","","","","","","","","","","","30.04","71","86","0.00","","","","61","30.04","FEW:02 30","30.03","10.00","76","130","24","16","","","","","","","","","","","","","","","","","","","","","","","","","","","","","","","","","","","","","MET10105/11/20 11:53:02 METAR TIST 111553Z 13014G21KT 10SM FEW030 30/22 A3004 RMK AO2 SLP172 T03000217 (SS)","FM-15","7","","","","","","","","","","","","","","","","","","","","","","","","","","","","2009-08-10"
"78543011640","2020-05-11T12:53:00","FM-15","6","","","","","","","","","","","","","","","","","","","","","","","","","","","","","","","","","","","","","","30.03","72","86","0.00","","","","63","30.03","CLR:00","30.02","10.00","76","130","","15","","","","","","","","","","","","","","","","","","","","","","","","","","","","","","","","","","","","","MET10005/11/20 12:53:02 METAR TIST 111653Z 13013KT 10SM CLR 30/22 A3003 RMK AO2 SLP168 T03000222 FIBI (SS)","FM-15","6","","","","","","","","","","","","","","","","","","","","","","","","","","","","2009-08-10"
"78543011640","2020-05-11T13:53:00","FM-15","7","","","","","","","","","","","","","","","","","","","","","","","","","","","","","","","","","","","","","","30.00","71","86","0.00","","+0.04","8","61","30.01","CLR:00","29.99","10.00","76","120","","15","","","","","","","","","","","","","","","","","","","","","","","","","","","","","","","","","","","","","MET11305/11/20 13:53:02 METAR TIST 111753Z 12013KT 10SM CLR 30/22 A3000 RMK AO2 SLP161 T03000217 10306 20278 58015 (JH)","FM-15","7","","","","","","","","","","","","","","","","","","","","","","","","","","","","2009-08-10"
"78543011640","2020-05-11T14:00:00","FM-12","4","","","","","","","","","","","","","","","","","","","","","","","","","","","","","","","","","","","","","","","71","86","","","+0.04","8","61","30.01","","","9.94","","120","","15","","","","","","","","","","","","","","","","","","","","","","","","","","","","","","","","","","","","","SYN07478543 32966 01213 10300 20217 30078 40161 58015 91753 333 10306 555 91118=","FM-12","4","","","","","","","","","","","","","","","","","","","","","","","","","","","","2009-08-10"
"78543011640","2020-05-11T14:53:00","FM-15","7","","","","","","","","","","","","","","","","","","","","","","","","","","","","","","","","","","","","","","29.99","71","87","0.00","","","","59","29.99","CLR:00","29.98","10.00","76","110","","16","","","","","","","","","","","","","","","","","","","","","","","","","","","","","","","","","","","","","MET09505/11/20 14:53:02 METAR TIST 111853Z 11014KT 10SM CLR 31/22 A2999 RMK AO2 SLP156 T03060217 (JH)","FM-15","7","","","","","","","","","","","","","","","","","","","","","","","","","","","","2009-08-10"
"78543011640","2020-05-11T15:53:00","FM-15","7","","","","","","","","","","","","","","","","","","","","","","","","","","","","","","","","","","","","","","29.98","69","86","0.00","","","","57","29.98","CLR:00","29.97","10.00","74","120","24","15","","","","","","","","","","","","","","","","","","","","","","","","","","","","","","","","","","","","","MET09805/11/20 15:53:02 METAR TIST 111953Z 12013G21KT 10SM CLR 30/21 A2998 RMK AO2 SLP151 T03000206 (JH)","FM-15","7","","","","","","","","","","","","","","","","","","","","","","","","","","","","2009-08-10"
"78543011640","2020-05-11T16:53:00","FM-15","7","","","","","","","","","","","","","","","","","","","","","","","","","","","","","","","","","","","","","","29.97","69","85","0.00","","+0.03","6","59","29.97","FEW:02 32","29.96","10.00","74","130","","13","","","","","","","","","","","","","","","","","","","","","","","","","","","","","","","","","","","","","MET10405/11/20 16:53:02 METAR TIST 112053Z 13011KT 10SM FEW032 29/21 A2997 RMK AO2 SLP150 T02940206 56010 (ND)","FM-15","7","","","","","","","","","","","","","","","","","","","","","","","","","","","","2009-08-10"
"78543011640","2020-05-11T17:53:00","FM-15","7","","","","","","","","","","","","","","","","","","","","","","","","","","","","","","","","","","","","","","29.97","69","84","0.00","","","","61","29.97","FEW:02 29","29.96","10.00","74","110","","14","","","","","","","","","","","","","","","","","","","","","","","","","","","","","","","","","","","","","MET09805/11/20 17:53:02 METAR TIST 112153Z 11012KT 10SM FEW029 29/21 A2997 RMK AO2 SLP150 T02890206 (ND)","FM-15","7","","","","","","","","","","","","","","","","","","","","","","","","","","","","2009-08-10"
"78543011640","2020-05-11T18:53:00","FM-15","7","","","","","","","","","","","","","","","","","","","","","","","","","","","","","","","","","","","","","","29.99","70","82","0.00","","","","67","29.99","FEW:02 28 SCT:04 35","29.98","10.00","74","100","","15","","","","","","","","","","","","","","","","","","","","","","","","","","","","","","","","","","","","","MET10505/11/20 18:53:02 METAR TIST 112253Z 10013KT 10SM FEW028 SCT035 28/21 A2999 RMK AO2 SLP155 T02780211 (ND)","FM-15","7","","","","","","","","","","","","","","","","","","","","","","","","","","","","2009-08-10"
"78543011640","2020-05-11T19:53:00","FM-15","7","","","","","","","","","","","","","","","","","","","","","","","","","","","","","","","","","","","","","","30.00","71","82","0.00","","-0.03","3","69","30.00","FEW:02 35","29.99","10.00","74","100","","10","","","","","","","","","","","","","","","","","","","","","","","","","","","","","","","","","","","","","MET11605/11/20 19:53:02 METAR TIST 112353Z 10009KT 10SM FEW035 28/22 A3000 RMK AO2 SLP159 T02780217 10306 20278 53009 (ND)","FM-15","7","","","","","","","","","","","","","","","","","","","","","","","","","","","","2009-08-10"
"78543011640","2020-05-11T20:00:00","FM-12","4","","","","","","","","","","","","","","","","","","","","","","","","","","","","","","","","","","","","","","","71","82","","","-0.03","3","69","30.00","41","","9.94","","100","","10","","","","","","","","","","","","","","","","","","","","","","","","","","","","","","","","","","","","","SYN08078543 32666 21009 10278 20217 30078 40159 53009 92353 333 10306 20250 555 91200=","FM-12","4","","","","","","","","","","","","","","","","","","","","","","","","","","","","2009-08-10"
"78543011640","2020-05-11T20:53:00","FM-15","7","","","","","","","","","","","","","","","","","","","","","","","","","","","","","","","","","","","","","","30.02","71","82","0.00","","","","69","30.02","CLR:00","30.01","10.00","74","120","","14","","","","","","","","","","","","","","","","","","","","","","","","","","","","","","","","","","","","","MET09005/11/20 20:53:01 METAR TIST 120053Z 12012KT 10SM CLR 28/22 A3002 RMK AO2 SLP166 T02780217","FM-15","7","","","","","","","","","","","","","","","","","","","","","","","","","","","","2009-08-10"
"78543011640","2020-05-11T21:53:00","FM-15","7","","","","","","","","","","","","","","","","","","","","","","","","","","","","","","","","","","","","","","30.03","70","82","0.00","","","","67","30.03","CLR:00","30.02","10.00","74","110","","14","","","","","","","","","","","","","","","","","","","","","","","","","","","","","","","","","","","","","MET09005/11/20 21:53:01 METAR TIST 120153Z 11012KT 10SM CLR 28/21 A3003 RMK AO2 SLP169 T02780211","FM-15","7","","","","","","","","","","","","","","","","","","","","","","","","","","","","2009-08-10"
"78543011640","2020-05-11T22:53:00","FM-15","7","","","","","","","","","","","","","","","","","","","","","","","","","","","","","","","","","","","","","","30.03","71","81","0.00","","-0.03","0","72","30.03","CLR:00","30.02","10.00","74","090","","13","","","","","","","","","","","","","","","","","","","","","","","","","","","","","","","","","","","","","MET09605/11/20 22:53:01 METAR TIST 120253Z 09011KT 10SM CLR 27/22 A3003 RMK AO2 SLP168 T02720217 50009","FM-15","7","","","","","","","","","","","","","","","","","","","","","","","","","","","","2009-08-10"
"78543011640","2020-05-11T23:53:00","FM-15","7","","","","","","","","","","","","","","","","","","","","","","","","","","","","","","","","","","","","","","30.02","71","82","0.00","","","","69","30.01","CLR:00","30.01","10.00","74","110","23","17","","","","","","","","","","","","","","","","","","","","","","","","","","","","","","","","","","","","","MET10305/11/20 23:53:02 METAR TIST 120353Z 11015G20KT 10SM CLR 28/22 A3002 RMK AO2 SLP164 T02780217 403060250","FM-15","7","","","","","","","","","","","","","","","","","","","","","","","","","","","","2009-08-10"
"78543011640","2020-05-11T23:59:00","SOD  ","6","","","","","","","","","","","","","","","71","82","68","30.02","29.99","75","13.9","17","0.4","0","87","77","130","27","T","","","110","22","RA BR","","","","","","","","","","","","","","","","","","","","","","","","","","","","","","","","","","","","","","","","","","","","","","","","","","","","","","","","SOD73024 HR PRECIPITATION (IN):T     24 HR MAX TEMP (F):87 24 HR MAX TEMP TIME (LST):1510 24 HR MIN TEMP (F):77 24 HR MIN TEMP TIME (LST):0613 AVERAGE STATION PRESSURE:29.995 MINIMUM SEA LEVEL PRESSURE:29.97 TIME OF OCCURRENCE:1806 PEAK WIND SPEED (MPH):27  PEAK WIND DIR (DEG):130 PEAK WIND TIME (LST):0916  FASTEST 2MIN SPEED (MPH):22 FASTEST 2MIN DIR (DEG):110 FASTEST 2MIN TIME (LST):0843 AVERAGE WIND SPEED (MPH):13.9 24 HR AVG TEMP (F):82 HEATING DEGREE DAYS:0   COOLING DEGREE DAYS:17  LATEST DAY MAX TEMP (0700-1900 LST):87  LATEST NIGHT MIN TEMP(1900-0800 LST):77 HOURLY INCREMENTAL PRECIPITATION VALUES (IN):.00 0.00 T    T    0.00 T    T    0.00 0.00 0.00 0.00 0.00 0.00 0.00 0.00 0.00 0.00 0.00 0.00 0.00 0.00 0.00 0.00 0.00","SOD  ","6","","","","","","","","","","","","","","","","","","","","","","","","","0548","1845","","2009-08-10"
"78543011640","2020-05-12T00:53:00","FM-15","7","","","","","","","","","","","","","","","","","","","","","","","","","","","","","","","","","","","","","","30.00","70","81","0.00","","","","69","30.00","CLR:00","29.99","10.00","74","110","24","17","","","","","","","","","","","","","","","","","","","","","","","","","","","","","","","","","","","","","MET09305/12/20 00:53:02 METAR TIST 120453Z 11015G21KT 10SM CLR 27/21 A3000 RMK AO2 SLP158 T02720211","FM-15","7","","","","","","","","","","","","","","","","","","","","","","","","","","","","2009-08-10"
"78543011640","2020-05-12T01:53:00","FM-15","7","","","","","","","","","","","","","","","","","","","","","","","","","","","","","","","","","","","","","","29.99","70","81","0.00","","+0.03","6","69","29.99","FEW:02 27","29.98","10.00","74","100","","15","","","","","","","","","","","","","","","","","","","","","","","","","","","","","","","","","","","","","MET11105/12/20 01:53:02 METAR TIST 120553Z 10013KT 10SM FEW027 27/21 A2999 RMK AO2 SLP157 T02720211 10278 20272 56011","FM-15","7","","","","","","","","","","","","","","","","","","","","","","","","","","","","2009-08-10"
"78543011640","2020-05-12T02:00:00","FM-12","4","","","","","","","","","","","","","","","","","","","","","","","","","","","","","","","","","","","","","","","70","81","","","+0.03","6","69","29.99","26","","9.94","","100","","15","","","","","","","","","","","","","","","","","","","","","","","","","","","","","","","","","","","","","SYN08078543 35566 21013 10272 20211 30075 40157 56011 90553 333 10278 20250 555 91206=","FM-12","4","","","","","","","","","","","","","","","","","","","","","","","","","","","","2009-08-10"
"78543011640","2020-05-12T02:53:00","FM-15","7","","","","","","","","","","","","","","","","","","","","","","","","","","","","","","","","","","","","","","30.00","70","81","0.00","","","","69","29.99","BKN:07 70","29.99","10.00","74","110","","16","","","","","","","","","","","","","","","","","","","","","","","","","","","","","","","","","","","","","MET09305/12/20 02:53:02 METAR TIST 120653Z 11014KT 10SM BKN070 27/21 A3000 RMK AO2 SLP157 T02720211","FM-15","7","","","","","","","","","","","","","","","","","","","","","","","","","","","","2009-08-10"
"78543011640","2020-05-12T03:53:00","FM-15","7","","","","","","","","","","","","","","","","","","","","","","","","","","","","","","","","","","","","","","30.00","70","81","0.00","","","","69","30.00","OVC:08 75","29.99","10.00","74","100","","14","","","","","","","","","","","","","","","","","","","","","","","","","","","","","","","","","","","","","MET09305/12/20 03:53:02 METAR TIST 120753Z 10012KT 10SM OVC075 27/21 A3000 RMK AO2 SLP158 T02720211","FM-15","7","","","","","","","","","","","","","","","","","","","","","","","","","","","","2009-08-10"
"78543011640","2020-05-12T04:53:00","FM-15","7","","","","","","","","","","","","","","","","","","","","","","","","","","","","","","","","","","","","","","29.99","70","81","0.00","","-0.00","0","69","29.99","CLR:00","29.98","10.00","74","110","24","15","","","","","","","","","","","","","","","","","","","","","","","","","","","","","","","","","","","","","MET09905/12/20 04:53:02 METAR TIST 120853Z 11013G21KT 10SM CLR 27/21 A2999 RMK AO2 SLP157 T02720211 50000","FM-15","7","","","","","","","","","","","","","","","","","","","","","","","","","","","","2009-08-10"
"78543011640","2020-05-12T05:53:00","FM-15","7","","","","","","","","","","","","","","","","","","","","","","","","","","","","","","","","","","","","","","30.01","69","81","0.00","","","","67","30.01","FEW:02 80","30.00","10.00","73","110","","17","","","","","","","","","","","","","","","","","","","","","","","","","","","","","","","","","","","","","MET09305/12/20 05:53:02 METAR TIST 120953Z 11015KT 10SM FEW080 27/21 A3001 RMK AO2 SLP161 T02720206","FM-15","7","","","","","","","","","","","","","","","","","","","","","","","","","","","","2009-08-10"
"78543011640","2020-05-12T06:53:00","FM-15","7","","","","","","","","","","","","","","","","","","","","","","","","","","","","","","","","","","","","","","30.02","70","82","0.00","","","","67","30.02","SCT:04 27","30.01","10.00","74","120","25","14","","","","","","","","","","","","","","","","","","","","","","","","","","","","","","","","","","","","","MET10105/12/20 06:53:02 METAR TIST 121053Z 12012G22KT 10SM SCT027 28/21 A3002 RMK AO2 SLP166 T02780211 (DR)","FM-15","7","","","","","","","","","","","","","","","","","","","","","","","","","","","","2009-08-10"
"78543011640","2020-05-12T07:53:00","FM-15","7","","","","","","","","","","","","","","","","","","","","","","","","","","","","","","","","","","","","","","30.03","70","83","0.00","","-0.03","1","65","30.03","CLR:00","30.02","10.00","74","120","","16","","","","","","","","","","","","","","","","","","","","","","","","","","","","","","","","","","","","","MET11305/12/20 07:53:02 METAR TIST 121153Z 12014KT 10SM CLR 28/21 A3003 RMK AO2 SLP168 T02830211 10283 20272 51011 (DR)","FM-15","7","","","","","","","","","","","","","","","","","","","","","","","","","","","","2009-08-10"
"78543011640","2020-05-12T08:00:00","FM-12","4","","","","","","","","","","","","","","","","","","","","","","","","","","","","","","","","","","","","","","","70","83","","","-0.03","1","65","30.03","","","9.94","","120","","16","","","","","","","","","","","","","","","","","","","","","","","","","","","","","","","","","","","","","SYN08078543 32966 01214 10283 20211 30088 40168 51011 91153 333 10306 20272 555 91212=","FM-12","4","","","","","","","","","","","","","","","","","","","","","","","","","","","","2009-08-10"
"78543011640","2020-05-12T08:53:00","FM-15","7","","","","","","","","","","","","","","","","","","","","","","","","","","","","","","","","","","","","","","30.04","71","84","0.00","","","","65","30.04","CLR:00","30.03","10.00","75","120","22","14","","","","","","","","","","","","","","","","","","","","","","","","","","","","","","","","","","","","","MET09805/12/20 08:53:02 METAR TIST 121253Z 12012G19KT 10SM CLR 29/22 A3004 RMK AO2 SLP174 T02890217 (DR)","FM-15","7","","","","","","","","","","","","","","","","","","","","","","","","","","","","2009-08-10"
"78543011640","2020-05-12T09:53:00","FM-15","7","","","","","","","","","","","","","","","","","","","","","","","","","","","","","","","","","","","","","","30.05","72","85","0.00","","","","65","30.05","SCT:04 24","30.04","10.00","76","120","22","14","","","","","","","","","","","","","","","","","","","","","","","","","","","","","","","","","","","","","MET10105/12/20 09:53:02 METAR TIST 121353Z 12012G19KT 10SM SCT024 29/22 A3005 RMK AO2 SLP175 T02940222 (SS)","FM-15","7","","","","","","","","","","","","","","","","","","","","","","","","","","","","2009-08-10"
"78543011640","2020-05-12T10:53:00","FM-15","7","","","","","","","","","","","","","","","","","","","","","","","","","","","","","","","","","","","","","","30.03","72","86","0.00","","-0.01","0","63","30.03","CLR:00","30.02","10.00","76","130","","13","","","","","","","","","","","","","","","","","","","","","","","","","","","","","","","","","","","","","MET10105/12/20 10:53:02 METAR TIST 121453Z 13011KT 10SM CLR 30/22 A3003 RMK AO2 SLP170 T03000222 50002 (SS)","FM-15","7","","","","","","","","","","","","","","","","","","","","","","","","","","","","2009-08-10"
"78543011640","2020-05-12T11:53:00","FM-15","7","","","","","","","","","","","","","","","","","","","","","","","","","","","","","","","","","","","","","","30.03","72","86","0.00","","","","63","30.03","CLR:00","30.02","10.00","76","130","","13","","","","","","","","","","","","","","","","","","","","","","","","","","","","","","","","","","","","","MET09505/12/20 11:53:02 METAR TIST 121553Z 13011KT 10SM CLR 30/22 A3003 RMK AO2 SLP168 T03000222 (SS)","FM-15","7","","","","","","","","","","","","","","","","","","","","","","","","","","","","2009-08-10"
"78543011640","2020-05-12T12:53:00","FM-15","7","","","","","","","","","","","","","","","","","","","","","","","","","","","","","","","","","","","","","","30.01","72","86","0.00","","","","63","30.01","FEW:02 30","30.00","10.00","76","130","","15","","","","","","","","","","","","","","","","","","","","","","","","","","","","","","","","","","","","","MET09805/12/20 12:53:02 METAR TIST 121653Z 13013KT 10SM FEW030 30/22 A3001 RMK AO2 SLP162 T03000222 (SS)","FM-15","7","","","","","","","","","","","","","","","","","","","","","","","","","","","","2009-08-10"
"78543011640","2020-05-12T13:53:00","FM-15","7","","","","","","","","","","","","","","","","","","","","","","","","","","","","","","","","","","","","","","29.99","73","87","0.00","","+0.04","8","63","29.99","CLR:00","29.98","10.00","77","110","","14","","","","","","","","","","","","","","","","","","","","","","","","","","","","","","","","","","","","","MET11305/12/20 13:53:02 METAR TIST 121753Z 11012KT 10SM CLR 31/23 A2999 RMK AO2 SLP155 T03060228 10306 20278 58015 (SS)","FM-15","7","","","","","","","","","","","","","","","","","","","","","","","","","","","","2009-08-10"
"78543011640","2020-05-12T14:00:00","FM-12","4","","","","","","","","","","","","","","","","","","","","","","","","","","","","","","","","","","","","","","","73","87","","","+0.04","8","63","29.99","","","9.94","","110","","14","","","","","","","","","","","","","","","","","","","","","","","","","","","","","","","","","","","","","SYN08078543 32966 01112 10306 20228 30075 40155 58015 91753 333 10306 20278 555 91218=","FM-12","4","","","","","","","","","","","","","","","","","","","","","","","","","","","","2009-08-10"
"78543011640","2020-05-12T14:53:00","FM-15","7","","","","","","","","","","","","","","","","","","","","","","","","","","","","","","","","","","","","","","29.97","73","86","0.00","","","","65","29.98","CLR:00","29.96","10.00","77","120","","14","","","","","","","","","","","","","","","","","","","","","","","","","","","","","","","","","","","","","MET09505/12/20 14:53:02 METAR TIST 121853Z 12012KT 10SM CLR 30/23 A2997 RMK AO2 SLP151 T03000228 (SS)","FM-15","7","","","","","","","","","","","","","","","","","","","","","","","","","","","","2009-08-10"
"78543011640","2020-05-12T15:53:00","FM-15","6","","","","","","","","","","","","","","","","","","","","","","","","","","","","","","","","","","","","","","29.96","72","85","0.00","","","","65","29.96","CLR:00","29.95","10.00","76","130","","13","","","","","","","","","","","","","","","","","","","","","","","","","","","","","","","","","","","","","MET10005/12/20 15:53:02 METAR TIST 121953Z 13011KT 10SM CLR 29/22 A2996 RMK AO2 SLP146 T02940222 FIBI (SS)","FM-15","6","","","","","","","","","","","","","","","","","","","","","","","","","","","","2009-08-10"
"78543011640","2020-05-12T16:53:00","FM-15","7","","","","","","","","","","","","","","","","","","","","","","","","","","","","","","","","","","","","","","29.96","72","84","0.00","","+0.03","6","67","29.96","FEW:02 30","29.95","10.00","76","130","","13","","","","","","","","","","","","","","","","","","","","","","","","","","","","","","","","","","","","","MET10405/12/20 16:53:02 METAR TIST 122053Z 13011KT 10SM FEW030 29/22 A2996 RMK AO2 SLP144 T02890222 56011 (ND)","FM-15","7","","","","","","","","","","","","","","","","","","","","","","","","","","","","2009-08-10"
"78543011640","2020-05-12T17:53:00","FM-15","7","","","","","","","","","","","","","","","","","","","","","","","","","","","","","","","","","","","","","","29.97","72","84","0.00","","","","67","29.97","FEW:02 30","29.96","10.00","76","120","","13","","","","","","","","","","","","","","","","","","","","","","","","","","","","","","","","","","","","","MET09805/12/20 17:53:02 METAR TIST 122153Z 12011KT 10SM FEW030 29/22 A2997 RMK AO2 SLP149 T02890222 (ND)","FM-15","7","","","","","","","","","","","","","","","","","","","","","","","","","","","","2009-08-10"
"78543011640","2020-05-12T18:53:00","FM-15","7","","","","","","","","","","","","","","","","","","","","","","","","","","","","","","","","","","","","","","29.99","72","83","0.00","","","","70","29.98","FEW:02 30","29.98","10.00","75","100","","14","","","","","","","","","","","","","","","","","","","","","","","","","","","","","","","","","","","","","MET10005/12/20 18:53:02 METAR TIST 122253Z 10012KT 10SM FEW030 28/22 A2999 RMK AO2 SLP154 T02830222 $ (ND)","FM-15","7","","","","","","","","","","","","","","","","","","","","","","","","","","","","2009-08-10"
"78543011640","2020-05-12T19:53:00","FM-15","7","","","","","","","","","","","","","","","","","","","","","","","","","","","","","","","","","","","","","","30.01","72","82","0.00","","-0.05","3","72","30.01","CLR:00","30.00","10.00","75","100","","7","","","","","","","","","","","","","","","","","","","","","","","","","","","","","","","","","","","","","MET11505/12/20 19:53:02 METAR TIST 122353Z 10006KT 10SM CLR 28/22 A3001 RMK AO2 SLP162 T02780222 10306 20278 53018 $ (ND)","FM-15","7","","","","","","","","","","","","","","","","","","","","","","","","","","","","2009-08-10"
"78543011640","2020-05-12T20:00:00","FM-12","4","","","","","","","","","","","","","","","","","","","","","","","","","","","","","","","","","","","","","","","72","82","","","-0.05","3","72","30.01","","","9.94","","100","","7","","","","","","","","","","","","","","","","","","","","","","","","","","","","","","","","","","","","","SYN08078543 32966 01006 10278 20222 30082 40162 53018 92353 333 10306 20272 555 91300=","FM-12","4","","","","","","","","","","","","","","","","","","","","","","","","","","","","2009-08-10"
"78543011640","2020-05-12T20:53:00","FM-15","7","","","","","","","","","","","","","","","","","","","","","","","","","","","","","","","","","","","","","","30.03","73","82","0.00","","","","74","30.03","CLR:00","30.02","10.00","76","100","","9","","","","","","","","","","","","","","","","","","","","","","","","","","","","","","","","","","","","","MET09205/12/20 20:53:01 METAR TIST 130053Z 10008KT 10SM CLR 28/23 A3003 RMK AO2 SLP168 T02780228 $","FM-15","7","","","","","","","","","","","","","","","","","","","","","","","","","","","","2009-08-10"
"78543011640","2020-05-12T21:53:00","FM-15","7","","","","","","","","","","","","","","","","","","","","","","","","","","","","","","","","","","","","","","30.05","73","82","0.00","","","","74","30.05","SCT:04 23","30.04","10.00","76","090","","9","","","","","","","","","","","","","","","","","","","","","","","","","","","","","","","","","","","","","MET09505/12/20 21:53:01 METAR TIST 130153Z 09008KT 10SM SCT023 28/23 A3005 RMK AO2 SLP175 T02780228 $","FM-15","7","","","","","","","","","","","","","","","","","","","","","","","","","","","","2009-08-10"
"78543011640","2020-05-12T22:53:00","FM-15","7","","","","","","","","","","","","","","","","","","","","","","","","","","","","","","","","","","","","","","30.04","72","82","0.00","","-0.04","0","72","30.04","FEW:02 28 FEW:02 37 SCT:04 120","30.03","10.00","75","110","","11","","","","","","","","","","","","","","","","","","","","","","","","","","","","","","","","","","","","","MET11505/12/20 22:53:01 METAR TIST 130253Z 11010KT 10SM FEW028 FEW037 SCT120 28/22 A3004 RMK AO2 SLP174 T02780222 50012 $","FM-15","7","","","","","","","","","","","","","","","","","","","","","","","","","","","","2009-08-10"
"78543011640","2020-05-12T23:53:00","FM-15","7","","","","","","","","","","","","","","","","","","","","","","","","","","","","","","","","","","","","","","30.03","71","82","T","","","","69","30.03","SCT:04 25 BKN:07 55 OVC:08 110","30.02","10.00","75","070","23","13","","","","","","","","","","","","","","","","","","","","","","","","","","","","","","","","","","","","","MET12205/12/20 23:53:02 METAR TIST 130353Z 07011G20KT 10SM SCT025 BKN055 OVC110 28/22 A3003 RMK AO2 SLP170 T02780217 403060272 $","FM-15","7","","","","","","","","","","","","","","","","","","","","","","","","","","","","2009-08-10"
"78543011640","2020-05-12T23:59:00","SOD  ","6","","","","","","","","","","","","","","","71","84","67","30.01","29.98","75","13.4","19","2.3","0","87","81","090","26","0.00","","","100","20","","","","","","","","","","","","","","","","","","","","","","","","","","","","","","","","","","","","","","","","","","","","","","","","","","","","","","","","","SOD72724 HR PRECIPITATION (IN):T     24 HR MAX TEMP (F):87 24 HR MAX TEMP TIME (LST):1458 24 HR MIN TEMP (F):81 24 HR MIN TEMP TIME (LST):2359 AVERAGE STATION PRESSURE:29.985 MINIMUM SEA LEVEL PRESSURE:29.95 TIME OF OCCURRENCE:1712 PEAK WIND SPEED (MPH):26  PEAK WIND DIR (DEG):90  PEAK WIND TIME (LST):0434  FASTEST 2MIN SPEED (MPH):20 FASTEST 2MIN DIR (DEG):100 FASTEST 2MIN TIME (LST):0434 AVERAGE WIND SPEED (MPH):13.4 24 HR AVG TEMP (F):84 HEATING DEGREE DAYS:0   COOLING DEGREE DAYS:19  LATEST DAY MAX TEMP (0700-1900 LST):87  LATEST NIGHT MIN TEMP(1900-0800 LST):81 HOURLY INCREMENTAL PRECIPITATION VALUES (IN):.00 0.00 0.00 0.00 0.00 0.00 0.00 0.00 0.00 0.00 0.00 0.00 0.00 0.00 0.00 0.00 0.00 0.00 0.00 0.00 0.00 0.00 0.00 T","SOD  ","6","","","","","","","","","","","","","","","","","","","","","","","","","0547","1845","","2009-08-10"
"78543011640","2020-05-13T00:18:00","FM-15","4","","","","","","","","","","","","","","","","","","","","","","","","","","","","","","","","","","","","","","30.03","72","80","T","","","","76","","BKN:07 25 BKN:07 38 OVC:08 70","","10.00","","070","","9","","","","","","","","","","","","","","","","","","","","","","","","","","","","","","","","","","","","","MET107METAR TIST 130418Z AUTO 07008KT 10SM BKN025 BKN038 OVC070 27/22 A3003 RMK AO2 RAB0356E07 P0000 T02670222 $=","FM-15","4","","","","","","","","","","","","","","","","","","","","","","","","","","","","2009-08-10"
"78543011640","2020-05-13T00:18:00","FM-16","4","","","","","","","","","","","","","","","","","","","","","","","","","","","","","","","","","","","","","","30.03","72","80","T","","","","76","","BKN:07 25 BKN:07 38 OVC:08 70","","10.00","","070","","9","","","","","","","","","","","","","","","","","","","","","","","","","","","","","","","","","","","","","MET107SPECI TIST 130418Z AUTO 07008KT 10SM BKN025 BKN038 OVC070 27/22 A3003 RMK AO2 RAB0356E07 P0000 T02670222 $=","FM-16","4","","","","","","","","","","","","","","","","","","","","","","","","","","","","2009-08-10"
"78543011640","2020-05-13T00:25:00","FM-15","4","","","","","","","","","","","","","","","","","","","","","","","","","","","","","","","","","","","","","","30.03","72","80","T","|RA |","","","76","","FEW:02 25 BKN:07 43 OVC:08 80","","10.00","","070","","16","","","","","","","","","","","","","","","","","","","","","","","","","","","","","","","","","","","","","MET114METAR TIST 130425Z AUTO 07014KT 10SM -RA FEW025 BKN043 OVC080 27/22 A3003 RMK AO2 RAB0356E07B24 P0000 T02670222 $=","FM-15","4","","","","","","","","","","","","","","","","","","","","","","","","","","","","2009-08-10"
"78543011640","2020-05-13T00:25:00","FM-16","7","","","","","","","","","","","","","","","","","","","","","","","","","","","","","","","","","","","","","","30.03","72","80","T","-RA:02 |RA |RA","","","76","","FEW:02 25 BKN:07 43 OVC:08 80","30.02","10.00","75","070","","16","","","","","","","","","","","","","","","","","","","","","","","","","","","","","","","","","","","","","MET12605/13/20 00:25:02 SPECI TIST 130425Z 07014KT 10SM -RA FEW025 BKN043 OVC080 27/22 A3003 RMK AO2 RAB0356E07B24 P0000 T02670222 $","FM-16","7","","","","","","","","","","","","","","","","","","","","","","","","","","","","2009-08-10"
"78543011640","2020-05-13T00:53:00","FM-15","7","","","","","","","","","","","","","","","","","","","","","","","","","","","","","","","","","","","","","","30.02","71","77","T","-RA:02 |RA |RA","","","82","30.02","FEW:02 44 BKN:07 80 OVC:08 90","30.01","10.00","73","080","","15","","","","","","","","","","","","","","","","","","","","","","","","","","","","","","","","","","","","","MET13305/13/20 00:53:02 METAR TIST 130453Z 08013KT 10SM -RA FEW044 BKN080 OVC090 25/22 A3002 RMK AO2 RAB0356E07B24 SLP165 P0000 T02500217 $","FM-15","7","","","","","","","","","","","","","","","","","","","","","","","","","","","","2009-08-10"
"78543011640","2020-05-13T01:53:00","FM-15","7","","","","","","","","","","","","","","","","","","","","","","","","","","","","","","","","","","","","","","30.01","71","78","T","","+0.03","6","79","30.01","FEW:02 30 BKN:07 90 OVC:08 110","30.00","10.00","73","110","20","15","","","","","","","","","","","","","","","","","","","","","","","","","","","","","","","","","","","","","MET14805/13/20 01:53:02 METAR TIST 130553Z 11013G17KT 10SM FEW030 BKN090 OVC110 26/22 A3001 RMK AO2 RAE13 SLP164 P0000 60000 T02560217 10278 20250 56011 $","FM-15","7","","","","","","","","","","","","","","","","","","","","","","","","","","","","2009-08-10"
"78543011640","2020-05-13T02:00:00","FM-12","4","","","","","","","","","","","","","","","","","","","","","","","","","","","","","","","","","","","","","","","71","78","","","+0.03","6","79","30.01","26","","9.94","","110","","15","","","","","","","","","","","","","","","","","","","","","","","","","","","","","","","","","","","","","SYN09278543 15566 81113 10256 20217 30082 40164 56011 69901 90553 333 10283 20250 91017 555 91306=","FM-12","4","","","","","","","","","","","","","","","","","","","","","","","","","","","","2009-08-10"
"78543011640","2020-05-13T02:53:00","FM-15","7","","","","","","","","","","","","","","","","","","","","","","","","","","","","","","","","","","","","","","30.00","68","78","0.00","","","","71","30.00","OVC:08 70","29.99","10.00","71","080","","14","","","","","","","","","","","","","","","","","","","","","","","","","","","","","","","","","","","","","MET09505/13/20 02:53:02 METAR TIST 130653Z 08012KT 10SM OVC070 26/20 A3000 RMK AO2 SLP158 T02560200 $","FM-15","7","","","","","","","","","","","","","","","","","","","","","","","","","","","","2009-08-10"
"78543011640","2020-05-13T03:53:00","FM-15","7","","","","","","","","","","","","","","","","","","","","","","","","","","","","","","","","","","","","","","30.00","70","79","0.00","","","","74","30.00","BKN:07 95","29.99","10.00","73","080","","9","","","","","","","","","","","","","","","","","","","","","","","","","","","","","","","","","","","","","MET09505/13/20 03:53:02 METAR TIST 130753Z 08008KT 10SM BKN095 26/21 A3000 RMK AO2 SLP158 T02610211 $","FM-15","7","","","","","","","","","","","","","","","","","","","","","","","","","","","","2009-08-10"
"78543011640","2020-05-13T04:53:00","FM-15","7","","","","","","","","","","","","","","","","","","","","","","","","","","","","","","","","","","","","","","30.00","71","79","0.00","","+0.01","5","77","30.00","CLR:00","29.99","10.00","74","090","","10","","","","","","","","","","","","","","","","","","","","","","","","","","","","","","","","","","","","","MET09805/13/20 04:53:02 METAR TIST 130853Z 09009KT 10SM CLR 26/22 A3000 RMK AO2 SLP159 T02610217 55004 $","FM-15","7","","","","","","","","","","","","","","","","","","","","","","","","","","","","2009-08-10"
"78543011640","2020-05-13T05:53:00","FM-15","7","","","","","","","","","","","","","","","","","","","","","","","","","","","","","","","","","","","","","","30.01","71","81","0.00","","","","72","30.01","FEW:02 23","30.00","10.00","74","120","","14","","","","","","","","","","","","","","","","","","","","","","","","","","","","","","","","","","","","","MET09505/13/20 05:53:02 METAR TIST 130953Z 12012KT 10SM FEW023 27/22 A3001 RMK AO2 SLP162 T02720217 $","FM-15","7","","","","","","","","","","","","","","","","","","","","","","","","","","","","2009-08-10"
"78543011640","2020-05-13T06:53:00","FM-15","7","","","","","","","","","","","","","","","","","","","","","","","","","","","","","","","","","","","","","","30.02","71","82","0.00","","","","69","30.02","FEW:02 25","30.01","10.00","74","120","","14","","","","","","","","","","","","","","","","","","","","","","","","","","","","","","","","","","","","","MET09505/13/20 06:53:02 METAR TIST 131053Z 12012KT 10SM FEW025 28/22 A3002 RMK AO2 SLP167 T02780217 $","FM-15","7","","","","","","","","","","","","","","","","","","","","","","","","","","","","2009-08-10"
"78543011640","2020-05-13T07:53:00","FM-15","7","","","","","","","","","","","","","","","","","","","","","","","","","","","","","","","","","","","","","","30.04","70","83","0.00","","-0.04","3","65","30.04","FEW:02 25","30.03","10.00","74","120","","15","","","","","","","","","","","","","","","","","","","","","","","","","","","","","","","","","","","","","MET11305/13/20 07:53:02 METAR TIST 131153Z 12013KT 10SM FEW025 28/21 A3004 RMK AO2 SLP172 T02830211 10283 20250 53013 $","FM-15","7","","","","","","","","","","","","","","","","","","","","","","","","","","","","2009-08-10"
"78543011640","2020-05-13T08:00:00","FM-12","4","","","","","","","","","","","","","","","","","","","","","","","","","","","","","","","","","","","","","","","70","83","","","-0.04","3","65","30.04","26","","9.94","","120","","15","","","","","","","","","","","","","","","","","","","","","","","","","","","","","","","","","","","","","SYN08078543 32566 21213 10283 20211 30092 40172 53013 91153 333 10306 20250 555 91312=","FM-12","4","","","","","","","","","","","","","","","","","","","","","","","","","","","","2009-08-10"
"78543011640","2020-05-13T08:53:00","FM-15","7","","","","","","","","","","","","","","","","","","","","","","","","","","","","","","","","","","","","","","30.03","70","84","0.00","","","","63","30.03","CLR:00","30.02","10.00","74","110","","17","","","","","","","","","","","","","","","","","","","","","","","","","","","","","","","","","","","","","MET09505/13/20 08:53:02 METAR TIST 131253Z 11015KT 10SM CLR 29/21 A3003 RMK AO2 SLP169 T02890211 (DR)","FM-15","7","","","","","","","","","","","","","","","","","","","","","","","","","","","","2009-08-10"
"78543011640","2020-05-13T09:53:00","FM-15","7","","","","","","","","","","","","","","","","","","","","","","","","","","","","","","","","","","","","","","30.03","70","85","0.00","","","","61","30.03","FEW:02 30","30.02","10.00","75","120","","16","","","","","","","","","","","","","","","","","","","","","","","","","","","","","","","","","","","","","MET09805/13/20 09:53:02 METAR TIST 131353Z 12014KT 10SM FEW030 29/21 A3003 RMK AO2 SLP170 T02940211 (DR)","FM-15","7","","","","","","","","","","","","","","","","","","","","","","","","","","","","2009-08-10"
"78543011640","2020-05-13T10:53:00","FM-15","7","","","","","","","","","","","","","","","","","","","","","","","","","","","","","","","","","","","","","","30.03","70","86","0.00","","+0.01","6","59","30.03","FEW:02 30","30.02","10.00","75","120","24","18","","","","","","","","","","","","","","","","","","","","","","","","","","","","","","","","","","","","","MET10905/13/20 10:53:02 METAR TIST 131453Z 12016G21KT 10SM FEW030 30/21 A3003 RMK AO2 SLP170 T03000211 56002 $ (DR)","FM-15","7","","","","","","","","","","","","","","","","","","","","","","","","","","","","2009-08-10"
"78543011640","2020-05-13T11:53:00","FM-15","7","","","","","","","","","","","","","","","","","","","","","","","","","","","","","","","","","","","","","","30.03","70","86","0.00","","","","59","30.03","CLR:00","30.02","10.00","75","130","","14","","","","","","","","","","","","","","","","","","","","","","","","","","","","","","","","","","","","","MET09705/13/20 11:53:02 METAR TIST 131553Z 13012KT 10SM CLR 30/21 A3003 RMK AO2 SLP171 T03000211 $ (DR)","FM-15","7","","","","","","","","","","","","","","","","","","","","","","","","","","","","2009-08-10"
"78543011640","2020-05-13T12:53:00","FM-15","7","","","","","","","","","","","","","","","","","","","","","","","","","","","","","","","","","","","","","","30.02","70","86","0.00","","","","59","30.03","FEW:02 30","30.01","10.00","75","120","","11","","","","","","","","","","","","","","","","","","","","","","","","","","","","","","","","","","","","","MET10005/13/20 12:53:02 METAR TIST 131653Z 12010KT 10SM FEW030 30/21 A3002 RMK AO2 SLP168 T03000211 $ (SS)","FM-15","7","","","","","","","","","","","","","","","","","","","","","","","","","","","","2009-08-10"
"78543011640","2020-05-13T13:53:00","FM-15","7","","","","","","","","","","","","","","","","","","","","","","","","","","","","","","","","","","","","","","30.00","71","86","0.00","","+0.03","8","61","30.00","SCT:04 30","29.99","10.00","76","130","","14","","","","","","","","","","","","","","","","","","","","","","","","","","","","","","","","","","","","","MET11805/13/20 13:53:02 METAR TIST 131753Z 13012KT 10SM SCT030 30/22 A3000 RMK AO2 SLP160 T03000217 10311 20278 58010 $ (JH)","FM-15","7","","","","","","","","","","","","","","","","","","","","","","","","","","","","2009-08-10"
"78543011640","2020-05-13T14:00:00","FM-12","4","","","","","","","","","","","","","","","","","","","","","","","","","","","","","","","","","","","","","","","71","86","","","+0.03","8","61","30.00","26","","9.94","","130","","14","","","","","","","","","","","","","","","","","","","","","","","","","","","","","","","","","","","","","SYN08078543 32566 41312 10300 20217 30078 40160 58010 91753 333 10311 20278 555 91318=","FM-12","4","","","","","","","","","","","","","","","","","","","","","","","","","","","","2009-08-10"
"78543011640","2020-05-13T14:53:00","FM-15","7","","","","","","","","","","","","","","","","","","","","","","","","","","","","","","","","","","","","","","29.98","70","87","0.00","","","","57","29.98","CLR:00","29.97","10.00","75","110","","16","","","","","","","","","","","","","","","","","","","","","","","","","","","","","","","","","","","","","MET09705/13/20 14:53:02 METAR TIST 131853Z 11014KT 10SM CLR 31/21 A2998 RMK AO2 SLP154 T03060211 $ (GS)","FM-15","7","","","","","","","","","","","","","","","","","","","","","","","","","","","","2009-08-10"
"78543011640","2020-05-13T15:53:00","FM-15","7","","","","","","","","","","","","","","","","","","","","","","","","","","","","","","","","","","","","","","29.98","71","86","0.00","","","","61","29.98","CLR:00","29.97","10.00","76","130","","13","","","","","","","","","","","","","","","","","","","","","","","","","","","","","","","","","","","","","MET09505/13/20 15:53:02 METAR TIST 131953Z 13011KT 10SM CLR 30/22 A2998 RMK AO2 SLP153 T03000217 (GS)","FM-15","7","","","","","","","","","","","","","","","","","","","","","","","","","","","","2009-08-10"
"78543011640","2020-05-13T16:53:00","FM-15","7","","","","","","","","","","","","","","","","","","","","","","","","","","","","","","","","","","","","","","29.98","70","85","0.00","","+0.02","5","61","29.98","FEW:02 30","29.97","10.00","75","130","","13","","","","","","","","","","","","","","","","","","","","","","","","","","","","","","","","","","","","","MET10405/13/20 16:53:02 METAR TIST 132053Z 13011KT 10SM FEW030 29/21 A2998 RMK AO2 SLP153 T02940211 55007 (ND)","FM-15","7","","","","","","","","","","","","","","","","","","","","","","","","","","","","2009-08-10"
"78543011640","2020-05-13T17:53:00","FM-15","7","","","","","","","","","","","","","","","","","","","","","","","","","","","","","","","","","","","","","","29.99","69","84","0.00","","","","61","29.99","FEW:02 30","29.98","10.00","74","120","","15","","","","","","","","","","","","","","","","","","","","","","","","","","","","","","","","","","","","","MET09805/13/20 17:53:02 METAR TIST 132153Z 12013KT 10SM FEW030 29/21 A2999 RMK AO2 SLP155 T02890206 (ND)","FM-15","7","","","","","","","","","","","","","","","","","","","","","","","","","","","","2009-08-10"
"78543011640","2020-05-13T18:53:00","FM-15","7","","","","","","","","","","","","","","","","","","","","","","","","","","","","","","","","","","","","","","30.00","68","83","0.00","","","","61","30.00","CLR:00","29.99","10.00","73","110","","11","","","","","","","","","","","","","","","","","","","","","","","","","","","","","","","","","","","","","MET09505/13/20 18:53:02 METAR TIST 132253Z 11010KT 10SM CLR 28/20 A3000 RMK AO2 SLP160 T02830200 (ND)","FM-15","7","","","","","","","","","","","","","","","","","","","","","","","","","","","","2009-08-10"
"78543011640","2020-05-13T19:53:00","FM-15","7","","","","","","","","","","","","","","","","","","","","","","","","","","","","","","","","","","","","","","30.01","69","82","0.00","","-0.03","3","65","30.01","CLR:00","30.00","10.00","73","VRB","","7","","","","","","","","","","","","","","","","","","","","","","","","","","","","","","","","","","","","","MET11305/13/20 19:53:02 METAR TIST 132353Z VRB06KT 10SM CLR 28/21 A3001 RMK AO2 SLP163 T02780206 10306 20278 53010 (ND)","FM-15","7","","","","","","","","","","","","","","","","","","","","","","","","","","","","2009-08-10"
"78543011640","2020-05-13T20:00:00","FM-12","4","","","","","","","","","","","","","","","","","","","","","","","","","","","","","","","","","","","","","","","69","82","","","-0.03","3","65","30.01","","","9.94","","","","7","","","","","","","","","","","","","","","","","","","","","","","","","","","","","","","","","","","","","SYN08078543 32966 0//06 10278 20206 30082 40163 53010 92353 333 10311 20250 555 91400=","FM-12","4","","","","","","","","","","","","","","","","","","","","","","","","","","","","2009-08-10"
"78543011640","2020-05-13T20:53:00","FM-15","7","","","","","","","","","","","","","","","","","","","","","","","","","","","","","","","","","","","","","","30.03","71","81","0.00","","","","72","30.03","CLR:00","30.02","10.00","74","070","","8","","","","","","","","","","","","","","","","","","","","","","","","","","","","","","","","","","","","","MET09005/13/20 20:53:01 METAR TIST 140053Z 07007KT 10SM CLR 27/22 A3003 RMK AO2 SLP169 T02720217","FM-15","7","","","","","","","","","","","","","","","","","","","","","","","","","","","","2009-08-10"
"78543011640","2020-05-13T21:53:00","FM-15","7","","","","","","","","","","","","","","","","","","","","","","","","","","","","","","","","","","","","","","30.03","72","81","0.00","","","","74","30.03","CLR:00","30.02","10.00","75","070","","8","","","","","","","","","","","","","","","","","","","","","","","","","","","","","","","","","","","","","MET09005/13/20 21:53:01 METAR TIST 140153Z 07007KT 10SM CLR 27/22 A3003 RMK AO2 SLP171 T02720222","FM-15","7","","","","","","","","","","","","","","","","","","","","","","","","","","","","2009-08-10"
"78543011640","2020-05-13T22:53:00","FM-15","7","","","","","","","","","","","","","","","","","","","","","","","","","","","","","","","","","","","","","","30.04","71","80","0.00","","-0.03","1","74","30.04","CLR:00","30.03","10.00","74","070","","5","","","","","","","","","","","","","","","","","","","","","","","","","","","","","","","","","","","","","MET09605/13/20 22:53:01 METAR TIST 140253Z 07004KT 10SM CLR 27/22 A3004 RMK AO2 SLP173 T02670217 51010","FM-15","7","","","","","","","","","","","","","","","","","","","","","","","","","","","","2009-08-10"
"78543011640","2020-05-13T23:53:00","FM-15","7","","","","","","","","","","","","","","","","","","","","","","","","","","","","","","","","","","","","","","30.04","71","80","0.00","","","","74","30.04","CLR:00","30.03","10.00","74","080","","6","","","","","","","","","","","","","","","","","","","","","","","","","","","","","","","","","","","","","MET10005/13/20 23:53:02 METAR TIST 140353Z 08005KT 10SM CLR 27/22 A3004 RMK AO2 SLP174 T02670217 403110250","FM-15","7","","","","","","","","","","","","","","","","","","","","","","","","","","","","2009-08-10"
"78543011640","2020-05-13T23:59:00","SOD  ","6","","","","","","","","","","","","","","","70","83","66","30.01","30.00","74","12.4","18","1.3","0","88","77","110","26","T","","","110","20","RA","","","","","","","","","","","","","","","","","","","","","","","","","","","","","","","","","","","","","","","","","","","","","","","","","","","","","","","","SOD73024 HR PRECIPITATION (IN):T     24 HR MAX TEMP (F):88 24 HR MAX TEMP TIME (LST):1321 24 HR MIN TEMP (F):77 24 HR MIN TEMP TIME (LST):0242 AVERAGE STATION PRESSURE:30.000 MINIMUM SEA LEVEL PRESSURE:29.98 TIME OF OCCURRENCE:1744 PEAK WIND SPEED (MPH):26  PEAK WIND DIR (DEG):110 PEAK WIND TIME (LST):1014  FASTEST 2MIN SPEED (MPH):20 FASTEST 2MIN DIR (DEG):110 FASTEST 2MIN TIME (LST):0904 AVERAGE WIND SPEED (MPH):12.4 24 HR AVG TEMP (F):83 HEATING DEGREE DAYS:0   COOLING DEGREE DAYS:18  LATEST DAY MAX TEMP (0700-1900 LST):88  LATEST NIGHT MIN TEMP(1900-0800 LST):77 HOURLY INCREMENTAL PRECIPITATION VALUES (IN):    T    0.00 0.00 0.00 0.00 0.00 0.00 0.00 0.00 0.00 0.00 0.00 0.00 0.00 0.00 0.00 0.00 0.00 0.00 0.00 0.00 0.00 0.00","SOD  ","6","","","","","","","","","","","","","","","","","","","","","","","","","0547","1846","","2009-08-10"
"78543011640","2020-05-14T00:53:00","FM-15","7","","","","","","","","","","","","","","","","","","","","","","","","","","","","","","","","","","","","","","30.03","71","81","0.00","","","","72","30.03","CLR:00","30.02","10.00","74","100","","8","","","","","","","","","","","","","","","","","","","","","","","","","","","","","","","","","","","","","MET09005/14/20 00:53:02 METAR TIST 140453Z 10007KT 10SM CLR 27/22 A3003 RMK AO2 SLP168 T02720217","FM-15","7","","","","","","","","","","","","","","","","","","","","","","","","","","","","2009-08-10"
"78543011640","2020-05-14T01:53:00","FM-15","7","","","","","","","","","","","","","","","","","","","","","","","","","","","","","","","","","","","","","","30.01","70","80","0.00","","+0.04","8","71","30.01","FEW:02 110","30.00","10.00","73","070","","7","","","","","","","","","","","","","","","","","","","","","","","","","","","","","","","","","","","","","MET11105/14/20 01:53:02 METAR TIST 140553Z 07006KT 10SM FEW110 27/21 A3001 RMK AO2 SLP162 T02670211 10278 20261 58012","FM-15","7","","","","","","","","","","","","","","","","","","","","","","","","","","","","2009-08-10"
"78543011640","2020-05-14T02:00:00","FM-12","4","","","","","","","","","","","","","","","","","","","","","","","","","","","","","","","","","","","","","","","70","80","","","+0.04","8","71","30.01","","","9.94","","070","","7","","","","","","","","","","","","","","","","","","","","","","","","","","","","","","","","","","","","","SYN08078543 35966 20706 10267 20211 30082 40162 58012 90553 333 10283 20250 555 91406=","FM-12","4","","","","","","","","","","","","","","","","","","","","","","","","","","","","2009-08-10"
"78543011640","2020-05-14T02:53:00","FM-15","7","","","","","","","","","","","","","","","","","","","","","","","","","","","","","","","","","","","","","","30.00","70","80","0.00","","","","71","30.00","CLR:00","29.99","10.00","73","090","","9","","","","","","","","","","","","","","","","","","","","","","","","","","","","","","","","","","","","","MET09005/14/20 02:53:02 METAR TIST 140653Z 09008KT 10SM CLR 27/21 A3000 RMK AO2 SLP160 T02670211","FM-15","7","","","","","","","","","","","","","","","","","","","","","","","","","","","","2009-08-10"
"78543011640","2020-05-14T03:53:00","FM-15","7","","","","","","","","","","","","","","","","","","","","","","","","","","","","","","","","","","","","","","30.01","70","80","0.00","","","","71","30.01","FEW:02 26","30.00","10.00","73","090","","11","","","","","","","","","","","","","","","","","","","","","","","","","","","","","","","","","","","","","MET09305/14/20 03:53:02 METAR TIST 140753Z 09010KT 10SM FEW026 27/21 A3001 RMK AO2 SLP162 T02670211","FM-15","7","","","","","","","","","","","","","","","","","","","","","","","","","","","","2009-08-10"
"78543011640","2020-05-14T04:53:00","FM-15","7","","","","","","","","","","","","","","","","","","","","","","","","","","","","","","","","","","","","","","30.01","69","80","0.00","","-0.01","3","69","30.01","CLR:00","30.00","10.00","73","100","","11","","","","","","","","","","","","","","","","","","","","","","","","","","","","","","","","","","","","","MET09605/14/20 04:53:02 METAR TIST 140853Z 10010KT 10SM CLR 27/21 A3001 RMK AO2 SLP164 T02670206 53002","FM-15","7","","","","","","","","","","","","","","","","","","","","","","","","","","","","2009-08-10"
"78543011640","2020-05-14T05:53:00","FM-15","7","","","","","","","","","","","","","","","","","","","","","","","","","","","","","","","","","","","","","","30.03","69","80","0.00","","","","69","30.03","CLR:00","30.02","10.00","73","100","","13","","","","","","","","","","","","","","","","","","","","","","","","","","","","","","","","","","","","","MET09005/14/20 05:53:02 METAR TIST 140953Z 10011KT 10SM CLR 27/21 A3003 RMK AO2 SLP169 T02670206","FM-15","7","","","","","","","","","","","","","","","","","","","","","","","","","","","","2009-08-10"
"78543011640","2020-05-14T06:53:00","FM-15","7","","","","","","","","","","","","","","","","","","","","","","","","","","","","","","","","","","","","","","30.03","69","82","0.00","","","","65","30.03","FEW:02 30","30.02","10.00","73","110","","14","","","","","","","","","","","","","","","","","","","","","","","","","","","","","","","","","","","","","MET09805/14/20 06:53:02 METAR TIST 141053Z 11012KT 10SM FEW030 28/21 A3003 RMK AO2 SLP170 T02780206 (SS)","FM-15","7","","","","","","","","","","","","","","","","","","","","","","","","","","","","2009-08-10"
"78543011640","2020-05-14T07:53:00","FM-15","7","","","","","","","","","","","","","","","","","","","","","","","","","","","","","","","","","","","","","","30.05","69","83","0.00","","-0.04","3","63","30.05","FEW:02 70","30.04","10.00","74","120","","15","","","","","","","","","","","","","","","","","","","","","","","","","","","","","","","","","","","","","MET11605/14/20 07:53:02 METAR TIST 141153Z 12013KT 10SM FEW070 28/21 A3005 RMK AO2 SLP175 T02830206 10289 20267 53012 (SS)","FM-15","7","","","","","","","","","","","","","","","","","","","","","","","","","","","","2009-08-10"
"78543011640","2020-05-14T08:00:00","FM-12","4","","","","","","","","","","","","","","","","","","","","","","","","","","","","","","","","","","","","","","","69","83","","","-0.04","3","63","30.05","74","","9.94","","120","","15","","","","","","","","","","","","","","","","","","","","","","","","","","","","","","","","","","","","","SYN08078543 32866 21213 10283 20206 30095 40175 53012 91153 333 10311 20261 555 91412=","FM-12","4","","","","","","","","","","","","","","","","","","","","","","","","","","","","2009-08-10"
"78543011640","2020-05-14T08:53:00","FM-15","7","","","","","","","","","","","","","","","","","","","","","","","","","","","","","","","","","","","","","","30.06","69","84","0.00","","","","61","30.06","FEW:02 30","30.05","10.00","74","120","","15","","","","","","","","","","","","","","","","","","","","","","","","","","","","","","","","","","","","","MET09805/14/20 08:53:02 METAR TIST 141253Z 12013KT 10SM FEW030 29/21 A3006 RMK AO2 SLP179 T02890206 (SS)","FM-15","7","","","","","","","","","","","","","","","","","","","","","","","","","","","","2009-08-10"
"78543011640","2020-05-14T09:53:00","FM-15","7","","","","","","","","","","","","","","","","","","","","","","","","","","","","","","","","","","","","","","30.06","70","85","0.00","","","","61","30.06","FEW:02 37","30.05","10.00","75","120","","15","","","","","","","","","","","","","","","","","","","","","","","","","","","","","","","","","","","","","MET09805/14/20 09:53:02 METAR TIST 141353Z 12013KT 10SM FEW037 29/21 A3006 RMK AO2 SLP180 T02940211 (SS)","FM-15","7","","","","","","","","","","","","","","","","","","","","","","","","","","","","2009-08-10"
"78543011640","2020-05-14T10:53:00","FM-15","7","","","","","","","","","","","","","","","","","","","","","","","","","","","","","","","","","","","","","","30.06","69","86","0.00","","-0.01","1","57","30.06","CLR:00","30.05","10.00","74","130","","16","","","","","","","","","","","","","","","","","","","","","","","","","","","","","","","","","","","","","MET10105/14/20 10:53:02 METAR TIST 141453Z 13014KT 10SM CLR 30/21 A3006 RMK AO2 SLP180 T03000206 51004 (SS)","FM-15","7","","","","","","","","","","","","","","","","","","","","","","","","","","","","2009-08-10"
"78543011640","2020-05-14T11:53:00","FM-15","7","","","","","","","","","","","","","","","","","","","","","","","","","","","","","","","","","","","","","","30.05","67","86","0.00","","","","53","30.05","CLR:00","30.04","10.00","73","140","","16","","","","","","","","","","","","","","","","","","","","","","","","","","","","","","","","","","","","","MET09505/14/20 11:53:02 METAR TIST 141553Z 14014KT 10SM CLR 30/19 A3005 RMK AO2 SLP175 T03000194 (SS)","FM-15","7","","","","","","","","","","","","","","","","","","","","","","","","","","","","2009-08-10"
"78543011640","2020-05-14T12:53:00","FM-15","7","","","","","","","","","","","","","","","","","","","","","","","","","","","","","","","","","","","","","","30.03","68","86","0.00","","","","55","30.03","CLR:00","30.02","10.00","74","130","","14","","","","","","","","","","","","","","","","","","","","","","","","","","","","","","","","","","","","","MET09505/14/20 12:53:02 METAR TIST 141653Z 13012KT 10SM CLR 30/20 A3003 RMK AO2 SLP170 T03000200 (SS)","FM-15","7","","","","","","","","","","","","","","","","","","","","","","","","","","","","2009-08-10"
"78543011640","2020-05-14T13:53:00","FM-15","7","","","","","","","","","","","","","","","","","","","","","","","","","","","","","","","","","","","","","","30.01","67","86","0.00","","+0.05","8","53","30.01","CLR:00","30.00","10.00","73","140","","16","","","","","","","","","","","","","","","","","","","","","","","","","","","","","","","","","","","","","MET11305/14/20 13:53:02 METAR TIST 141753Z 14014KT 10SM CLR 30/19 A3001 RMK AO2 SLP162 T03000194 10300 20283 58018 (SS)","FM-15","7","","","","","","","","","","","","","","","","","","","","","","","","","","","","2009-08-10"
"78543011640","2020-05-14T14:00:00","FM-12","4","","","","","","","","","","","","","","","","","","","","","","","","","","","","","","","","","","","","","","","67","86","","","+0.05","8","53","30.01","","","9.94","","140","","16","","","","","","","","","","","","","","","","","","","","","","","","","","","","","","","","","","","","","SYN08078543 32966 01414 10300 20194 30082 40162 58018 91753 333 10300 20278 555 91418=","FM-12","4","","","","","","","","","","","","","","","","","","","","","","","","","","","","2009-08-10"
"78543011640","2020-05-14T14:53:00","FM-15","7","","","","","","","","","","","","","","","","","","","","","","","","","","","","","","","","","","","","","","29.99","67","86","0.00","","","","53","29.98","FEW:02 30","29.98","10.00","73","130","","14","","","","","","","","","","","","","","","","","","","","","","","","","","","","","","","","","","","","","MET09805/14/20 14:53:02 METAR TIST 141853Z 13012KT 10SM FEW030 30/19 A2999 RMK AO2 SLP154 T03000194 (ND)","FM-15","7","","","","","","","","","","","","","","","","","","","","","","","","","","","","2009-08-10"
"78543011640","2020-05-14T15:53:00","FM-15","7","","","","","","","","","","","","","","","","","","","","","","","","","","","","","","","","","","","","","","29.98","68","85","0.00","","","","57","29.98","FEW:02 30","29.97","10.00","74","130","","15","","","","","","","","","","","","","","","","","","","","","","","","","","","","","","","","","","","","","MET09805/14/20 15:53:02 METAR TIST 141953Z 13013KT 10SM FEW030 29/20 A2998 RMK AO2 SLP153 T02940200 (ND)","FM-15","7","","","","","","","","","","","","","","","","","","","","","","","","","","","","2009-08-10"
"78543011640","2020-05-14T16:53:00","FM-15","7","","","","","","","","","","","","","","","","","","","","","","","","","","","","","","","","","","","","","","29.98","68","85","0.00","","+0.03","6","57","29.98","FEW:02 46","29.97","10.00","74","130","","16","","","","","","","","","","","","","","","","","","","","","","","","","","","","","","","","","","","","","MET10405/14/20 16:53:02 METAR TIST 142053Z 13014KT 10SM FEW046 29/20 A2998 RMK AO2 SLP152 T02940200 56009 (ND)","FM-15","7","","","","","","","","","","","","","","","","","","","","","","","","","","","","2009-08-10"
"78543011640","2020-05-14T17:53:00","FM-15","7","","","","","","","","","","","","","","","","","","","","","","","","","","","","","","","","","","","","","","29.99","69","84","0.00","","","","61","29.99","SCT:04 35 SCT:04 43","29.98","10.00","74","100","","8","","","","","","","","","","","","","","","","","","","","","","","","","","","","","","","","","","","","","MET10505/14/20 17:53:02 METAR TIST 142153Z 10007KT 10SM SCT035 SCT043 29/21 A2999 RMK AO2 SLP156 T02890206 (ND)","FM-15","7","","","","","","","","","","","","","","","","","","","","","","","","","","","","2009-08-10"
"78543011640","2020-05-14T18:53:00","FM-15","7","","","","","","","","","","","","","","","","","","","","","","","","","","","","","","","","","","","","","","30.02","69","82","0.00","","","","65","30.02","FEW:02 35 FEW:02 43","30.01","10.00","73","070","","13","","","","","","","","","","","","","","","","","","","","","","","","","","","","","","","","","","","","","MET10505/14/20 18:53:02 METAR TIST 142253Z 07011KT 10SM FEW035 FEW043 28/21 A3002 RMK AO2 SLP165 T02780206 (ND)","FM-15","7","","","","","","","","","","","","","","","","","","","","","","","","","","","","2009-08-10"
"78543011640","2020-05-14T19:53:00","FM-15","7","","","","","","","","","","","","","","","","","","","","","","","","","","","","","","","","","","","","","","30.03","69","82","0.00","","-0.05","3","65","30.03","CLR:00","30.02","10.00","73","080","","10","","","","","","","","","","","","","","","","","","","","","","","","","","","","","","","","","","","","","MET11305/14/20 19:53:02 METAR TIST 142353Z 08009KT 10SM CLR 28/21 A3003 RMK AO2 SLP170 T02780206 10300 20272 53017 (ND)","FM-15","7","","","","","","","","","","","","","","","","","","","","","","","","","","","","2009-08-10"
"78543011640","2020-05-14T20:00:00","FM-12","4","","","","","","","","","","","","","","","","","","","","","","","","","","","","","","","","","","","","","","","69","82","","","-0.05","3","65","30.03","","","9.94","","080","","10","","","","","","","","","","","","","","","","","","","","","","","","","","","","","","","","","","","","","SYN08078543 32966 00809 10278 20206 30088 40170 53017 92353 333 10300 20267 555 91500=","FM-12","4","","","","","","","","","","","","","","","","","","","","","","","","","","","","2009-08-10"
"78543011640","2020-05-14T20:53:00","FM-15","7","","","","","","","","","","","","","","","","","","","","","","","","","","","","","","","","","","","","","","30.04","67","81","0.00","","","","62","30.04","CLR:00","30.03","10.00","72","070","","11","","","","","","","","","","","","","","","","","","","","","","","","","","","","","","","","","","","","","MET09005/14/20 20:53:01 METAR TIST 150053Z 07010KT 10SM CLR 27/19 A3004 RMK AO2 SLP174 T02720194","FM-15","7","","","","","","","","","","","","","","","","","","","","","","","","","","","","2009-08-10"
"78543011640","2020-05-14T21:53:00","FM-15","7","","","","","","","","","","","","","","","","","","","","","","","","","","","","","","","","","","","","","","30.06","69","81","0.00","","","","67","30.06","CLR:00","30.05","10.00","73","070","","9","","","","","","","","","","","","","","","","","","","","","","","","","","","","","","","","","","","","","MET09005/14/20 21:53:01 METAR TIST 150153Z 07008KT 10SM CLR 27/21 A3006 RMK AO2 SLP178 T02720206","FM-15","7","","","","","","","","","","","","","","","","","","","","","","","","","","","","2009-08-10"
"78543011640","2020-05-14T22:53:00","FM-15","7","","","","","","","","","","","","","","","","","","","","","","","","","","","","","","","","","","","","","","30.06","70","80","T","","-0.02","1","71","30.06","CLR:00","30.05","10.00","73","070","","8","","","","","","","","","","","","","","","","","","","","","","","","","","","","","","","","","","","","","MET11705/14/20 22:53:01 METAR TIST 150253Z 07007KT 10SM CLR 27/21 A3006 RMK AO2 RAB09E18 SLP178 P0000 60000 T02670211 51008","FM-15","7","","","","","","","","","","","","","","","","","","","","","","","","","","","","2009-08-10"
"78543011640","2020-05-14T23:53:00","FM-15","7","","","","","","","","","","","","","","","","","","","","","","","","","","","","","","","","","","","","","","30.04","70","80","0.00","","","","71","30.04","CLR:00","30.03","10.00","73","070","","8","","","","","","","","","","","","","","","","","","","","","","","","","","","","","","","","","","","","","MET10005/14/20 23:53:02 METAR TIST 150353Z 07007KT 10SM CLR 27/21 A3004 RMK AO2 SLP174 T02670211 403000261","FM-15","7","","","","","","","","","","","","","","","","","","","","","","","","","","","","2009-08-10"
"78543011640","2020-05-14T23:59:00","SOD  ","6","","","","","","","","","","","","","","","69","83","63","30.03","30.01","73","12.2","18","1.2","0","86","79","130","24","T","","","140","20","","","","","","","","","","","","","","","","","","","","","","","","","","","","","","","","","","","","","","","","","","","","","","","","","","","","","","","","","SOD73024 HR PRECIPITATION (IN):T     24 HR MAX TEMP (F):86 24 HR MAX TEMP TIME (LST):1603 24 HR MIN TEMP (F):79 24 HR MIN TEMP TIME (LST):0141 AVERAGE STATION PRESSURE:30.005 MINIMUM SEA LEVEL PRESSURE:29.97 TIME OF OCCURRENCE:1635 PEAK WIND SPEED (MPH):24  PEAK WIND DIR (DEG):130 PEAK WIND TIME (LST):1037  FASTEST 2MIN SPEED (MPH):20 FASTEST 2MIN DIR (DEG):140 FASTEST 2MIN TIME (LST):1212 AVERAGE WIND SPEED (MPH):12.2 24 HR AVG TEMP (F):83 HEATING DEGREE DAYS:0   COOLING DEGREE DAYS:18  LATEST DAY MAX TEMP (0700-1900 LST):86  LATEST NIGHT MIN TEMP(1900-0800 LST):79 HOURLY INCREMENTAL PRECIPITATION VALUES (IN):.00 0.00 0.00 0.00 0.00 0.00 0.00 0.00 0.00 0.00 0.00 0.00 0.00 0.00 0.00 0.00 0.00 0.00 0.00 0.00 0.00 0.00 T    0.00","SOD  ","6","","","","","","","","","","","","","","","","","","","","","","","","","0547","1846","","2009-08-10"
"78543011640","2020-05-15T00:53:00","FM-15","7","","","","","","","","","","","","","","","","","","","","","","","","","","","","","","","","","","","","","","30.03","70","80","0.00","","","","71","30.03","CLR:00","30.02","10.00","73","090","","9","","","","","","","","","","","","","","","","","","","","","","","","","","","","","","","","","","","","","MET09505/15/20 00:53:02 METAR TIST 150453Z 09008KT 10SM CLR 27/21 A3003 RMK AO2 SLP169 T02670211 (GS)","FM-15","7","","","","","","","","","","","","","","","","","","","","","","","","","","","","2009-08-10"
"78543011640","2020-05-15T01:53:00","FM-15","7","","","","","","","","","","","","","","","","","","","","","","","","","","","","","","","","","","","","","","30.02","71","78","T","","+0.04","6","79","30.02","FEW:02 75","30.01","10.00","73","090","","7","","","","","","","","","","","","","","","","","","","","","","","","","","","","","","","","","","","","","MET13705/15/20 01:53:02 METAR TIST 150553Z 09006KT 10SM FEW075 26/22 A3002 RMK AO2 RAB30E40 SLP166 P0000 60000 T02560217 10278 20256 56012 (GS)","FM-15","7","","","","","","","","","","","","","","","","","","","","","","","","","","","","2009-08-10"
"78543011640","2020-05-15T02:00:00","FM-12","4","","","","","","","","","","","","","","","","","","","","","","","","","","","","","","","","","","","","","","","71","78","","","+0.04","6","79","30.02","74","","9.94","","090","","7","","","","","","","","","","","","","","","","","","","","","","","","","","","","","","","","","","","","","SYN08678543 12866 20906 10256 20217 30085 40166 56012 69901 90553 333 10289 20256 555 91506=","FM-12","4","","","","","","","","","","","","","","","","","","","","","","","","","","","","2009-08-10"
"78543011640","2020-05-15T02:53:00","FM-15","7","","","","","","","","","","","","","","","","","","","","","","","","","","","","","","","","","","","","","","30.01","69","79","0.00","","","","72","30.01","CLR:00","30.00","10.00","72","090","","10","","","","","","","","","","","","","","","","","","","","","","","","","","","","","","","","","","","","","MET09505/15/20 02:53:02 METAR TIST 150653Z 09009KT 10SM CLR 26/21 A3001 RMK AO2 SLP162 T02610206 (GS)","FM-15","7","","","","","","","","","","","","","","","","","","","","","","","","","","","","2009-08-10"
"78543011640","2020-05-15T03:53:00","FM-15","7","","","","","","","","","","","","","","","","","","","","","","","","","","","","","","","","","","","","","","30.01","69","80","0.00","","","","69","30.01","FEW:02 85","30.00","10.00","73","080","","8","","","","","","","","","","","","","","","","","","","","","","","","","","","","","","","","","","","","","MET09805/15/20 03:53:02 METAR TIST 150753Z 08007KT 10SM FEW085 27/21 A3001 RMK AO2 SLP161 T02670206 (GS)","FM-15","7","","","","","","","","","","","","","","","","","","","","","","","","","","","","2009-08-10"
"78543011640","2020-05-15T04:53:00","FM-15","7","","","","","","","","","","","","","","","","","","","","","","","","","","","","","","","","","","","","","","30.01","69","80","0.00","","+0.01","5","69","30.01","SCT:04 28","30.00","10.00","73","090","","10","","","","","","","","","","","","","","","","","","","","","","","","","","","","","","","","","","","","","MET10405/15/20 04:53:02 METAR TIST 150853Z 09009KT 10SM SCT028 27/21 A3001 RMK AO2 SLP163 T02670206 55003 (GS)","FM-15","7","","","","","","","","","","","","","","","","","","","","","","","","","","","","2009-08-10"
"78543011640","2020-05-15T05:53:00","FM-15","7","","","","","","","","","","","","","","","","","","","","","","","","","","","","","","","","","","","","","","30.02","69","80","0.00","","","","69","30.02","FEW:02 70","30.01","10.00","73","090","","11","","","","","","","","","","","","","","","","","","","","","","","","","","","","","","","","","","","","","MET09305/15/20 05:53:02 METAR TIST 150953Z 09010KT 10SM FEW070 27/21 A3002 RMK AO2 SLP167 T02670206","FM-15","7","","","","","","","","","","","","","","","","","","","","","","","","","","","","2009-08-10"
"78543011640","2020-05-15T06:53:00","FM-15","7","","","","","","","","","","","","","","","","","","","","","","","","","","","","","","","","","","","","","","30.04","71","81","T","","","","72","30.04","FEW:02 30 FEW:02 39","30.03","10.00","74","090","","13","","","","","","","","","","","","","","","","","","","","","","","","","","","","","","","","","","","","","MET11505/15/20 06:53:02 METAR TIST 151053Z 09011KT 10SM FEW030 FEW039 27/22 A3004 RMK AO2 RAB12E25 SLP172 P0000 T02720217","FM-15","7","","","","","","","","","","","","","","","","","","","","","","","","","","","","2009-08-10"
"78543011640","2020-05-15T07:53:00","FM-15","7","","","","","","","","","","","","","","","","","","","","","","","","","","","","","","","","","","","","","","30.04","70","82","0.00","","-0.03","1","67","30.04","SCT:04 30","30.03","10.00","74","100","","17","","","","","","","","","","","","","","","","","","","","","","","","","","","","","","","","","","","","","MET12305/15/20 07:53:02 METAR TIST 151153Z 10015KT 10SM SCT030 28/21 A3004 RMK AO2 SLP174 60000 T02780211 10283 20256 51011 (ATC)","FM-15","7","","","","","","","","","","","","","","","","","","","","","","","","","","","","2009-08-10"
"78543011640","2020-05-15T08:00:00","FM-12","4","","","","","","","","","","","","","","","","","","","","","","","","","","","","","","","","","","","","","","","70","82","","","-0.03","1","67","30.04","26","","9.94","","100","","17","","","","","","","","","","","","","","","","","","","","","","","","","","","","","","","","","","","","","SYN08678543 12566 41015 10278 20211 30092 40174 51011 69901 91153 333 10300 20256 555 91512=","FM-12","4","","","","","","","","","","","","","","","","","","","","","","","","","","","","2009-08-10"
"78543011640","2020-05-15T08:53:00","FM-15","7","","","","","","","","","","","","","","","","","","","","","","","","","","","","","","","","","","","","","","30.06","69","83","0.00","","","","63","30.06","FEW:02 28 FEW:02 34","30.05","10.00","74","120","23","15","","","","","","","","","","","","","","","","","","","","","","","","","","","","","","","","","","","","","MET10905/15/20 08:53:02 METAR TIST 151253Z 12013G20KT 10SM FEW028 FEW034 28/21 A3006 RMK AO2 SLP180 T02830206 (ATC)","FM-15","7","","","","","","","","","","","","","","","","","","","","","","","","","","","","2009-08-10"
"78543011640","2020-05-15T09:53:00","FM-15","7","","","","","","","","","","","","","","","","","","","","","","","","","","","","","","","","","","","","","","30.06","68","85","0.00","","","","57","30.06","CLR:00","30.05","10.00","74","110","","16","","","","","","","","","","","","","","","","","","","","","","","","","","","","","","","","","","","","","MET09605/15/20 09:53:02 METAR TIST 151353Z 11014KT 10SM CLR 29/20 A3006 RMK AO2 SLP180 T02940200 (ATC)","FM-15","7","","","","","","","","","","","","","","","","","","","","","","","","","","","","2009-08-10"
"78543011640","2020-05-15T10:53:00","FM-15","7","","","","","","","","","","","","","","","","","","","","","","","","","","","","","","","","","","","","","","30.05","70","85","0.00","","-0.01","0","61","30.05","SCT:04 34","30.04","10.00","75","120","","17","","","","","","","","","","","","","","","","","","","","","","","","","","","","","","","","","","","","","MET10405/15/20 10:53:02 METAR TIST 151453Z 12015KT 10SM SCT034 29/21 A3005 RMK AO2 SLP177 T02940211 50002 (QQ)","FM-15","7","","","","","","","","","","","","","","","","","","","","","","","","","","","","2009-08-10"
"78543011640","2020-05-15T11:53:00","FM-15","7","","","","","","","","","","","","","","","","","","","","","","","","","","","","","","","","","","","","","","30.04","70","86","0.00","","","","59","30.04","FEW:02 50","30.03","10.00","75","130","","18","","","","","","","","","","","","","","","","","","","","","","","","","","","","","","","","","","","","","MET09805/15/20 11:53:02 METAR TIST 151553Z 13016KT 10SM FEW050 30/21 A3004 RMK AO2 SLP172 T03000211 (QQ)","FM-15","7","","","","","","","","","","","","","","","","","","","","","","","","","","","","2009-08-10"
"78543011640","2020-05-15T12:53:00","FM-15","7","","","","","","","","","","","","","","","","","","","","","","","","","","","","","","","","","","","","","","30.02","70","87","0.00","","","","57","30.02","FEW:02 30","30.01","10.00","75","130","","15","","","","","","","","","","","","","","","","","","","","","","","","","","","","","","","","","","","","","MET09805/15/20 12:53:02 METAR TIST 151653Z 13013KT 10SM FEW030 31/21 A3002 RMK AO2 SLP166 T03060211 (QQ)","FM-15","7","","","","","","","","","","","","","","","","","","","","","","","","","","","","2009-08-10"
"78543011640","2020-05-15T13:53:00","FM-15","7","","","","","","","","","","","","","","","","","","","","","","","","","","","","","","","","","","","","","","30.00","70","86","0.00","","+0.05","8","59","30.00","FEW:02 30","29.99","10.00","75","130","","17","","","","","","","","","","","","","","","","","","","","","","","","","","","","","","","","","","","","","MET11605/15/20 13:53:02 METAR TIST 151753Z 13015KT 10SM FEW030 30/21 A3000 RMK AO2 SLP160 T03000211 10306 20283 58016 (TB)","FM-15","7","","","","","","","","","","","","","","","","","","","","","","","","","","","","2009-08-10"
"78543011640","2020-05-15T14:00:00","FM-12","4","","","","","","","","","","","","","","","","","","","","","","","","","","","","","","","","","","","","","","","70","86","","","+0.05","8","59","30.00","26","","9.94","","130","","17","","","","","","","","","","","","","","","","","","","","","","","","","","","","","","","","","","","","","SYN08078543 32566 21315 10300 20211 30078 40160 58016 91753 333 10306 20272 555 91518=","FM-12","4","","","","","","","","","","","","","","","","","","","","","","","","","","","","2009-08-10"
"78543011640","2020-05-15T14:53:00","FM-15","7","","","","","","","","","","","","","","","","","","","","","","","","","","","","","","","","","","","","","","30.00","69","85","0.00","","","","59","30.00","BKN:07 75","29.99","10.00","74","130","","15","","","","","","","","","","","","","","","","","","","","","","","","","","","","","","","","","","","","","MET09805/15/20 14:53:02 METAR TIST 151853Z 13013KT 10SM BKN075 29/21 A3000 RMK AO2 SLP160 T02940206 (CE)","FM-15","7","","","","","","","","","","","","","","","","","","","","","","","","","","","","2009-08-10"
"78543011640","2020-05-15T15:53:00","FM-15","7","","","","","","","","","","","","","","","","","","","","","","","","","","","","","","","","","","","","","","29.98","70","86","0.00","","","","59","29.98","BKN:07 60","29.97","10.00","75","130","","13","","","","","","","","","","","","","","","","","","","","","","","","","","","","","","","","","","","","","MET09805/15/20 15:53:02 METAR TIST 151953Z 13011KT 10SM BKN060 30/21 A2998 RMK AO2 SLP153 T03000211 (CE)","FM-15","7","","","","","","","","","","","","","","","","","","","","","","","","","","","","2009-08-10"
"78543011640","2020-05-15T16:53:00","FM-15","7","","","","","","","","","","","","","","","","","","","","","","","","","","","","","","","","","","","","","","29.98","69","85","0.00","","+0.02","8","59","29.98","FEW:02 43","29.97","10.00","74","130","","13","","","","","","","","","","","","","","","","","","","","","","","","","","","","","","","","","","","","","MET10405/15/20 16:53:02 METAR TIST 152053Z 13011KT 10SM FEW043 29/21 A2998 RMK AO2 SLP152 T02940206 58008 (CE)","FM-15","7","","","","","","","","","","","","","","","","","","","","","","","","","","","","2009-08-10"
"78543011640","2020-05-15T17:53:00","FM-15","7","","","","","","","","","","","","","","","","","","","","","","","","","","","","","","","","","","","","","","29.99","70","84","0.00","","","","63","29.99","FEW:02 34","29.98","10.00","74","120","","16","","","","","","","","","","","","","","","","","","","","","","","","","","","","","","","","","","","","","MET09805/15/20 17:53:02 METAR TIST 152153Z 12014KT 10SM FEW034 29/21 A2999 RMK AO2 SLP155 T02890211 (CE)","FM-15","7","","","","","","","","","","","","","","","","","","","","","","","","","","","","2009-08-10"
"78543011640","2020-05-15T18:53:00","FM-15","7","","","","","","","","","","","","","","","","","","","","","","","","","","","","","","","","","","","","","","29.99","70","82","0.00","","","","67","29.99","CLR:00","29.98","10.00","74","100","","14","","","","","","","","","","","","","","","","","","","","","","","","","","","","","","","","","","","","","MET09505/15/20 18:53:02 METAR TIST 152253Z 10012KT 10SM CLR 28/21 A2999 RMK AO2 SLP157 T02780211 (CE)","FM-15","7","","","","","","","","","","","","","","","","","","","","","","","","","","","","2009-08-10"
"78543011640","2020-05-15T19:53:00","FM-15","7","","","","","","","","","","","","","","","","","","","","","","","","","","","","","","","","","","","","","","30.00","70","82","0.00","","-0.02","3","67","30.01","CLR:00","29.99","10.00","74","110","","13","","","","","","","","","","","","","","","","","","","","","","","","","","","","","","","","","","","","","MET11305/15/20 19:53:02 METAR TIST 152353Z 11011KT 10SM CLR 28/21 A3000 RMK AO2 SLP161 T02780211 10306 20278 53008 (CE)","FM-15","7","","","","","","","","","","","","","","","","","","","","","","","","","","","","2009-08-10"
"78543011640","2020-05-15T20:00:00","FM-12","4","","","","","","","","","","","","","","","","","","","","","","","","","","","","","","","","","","","","","","","70","82","","","-0.02","3","67","30.01","","","9.94","","110","","13","","","","","","","","","","","","","","","","","","","","","","","","","","","","","","","","","","","","","SYN08078543 32966 01111 10278 20211 30078 40161 53008 92353 333 10306 20256 555 91600=","FM-12","4","","","","","","","","","","","","","","","","","","","","","","","","","","","","2009-08-10"
"78543011640","2020-05-15T20:53:00","FM-15","7","","","","","","","","","","","","","","","","","","","","","","","","","","","","","","","","","","","","","","30.02","70","82","0.00","","","","67","30.02","CLR:00","30.01","10.00","74","110","","16","","","","","","","","","","","","","","","","","","","","","","","","","","","","","","","","","","","","","MET09005/15/20 20:53:01 METAR TIST 160053Z 11014KT 10SM CLR 28/21 A3002 RMK AO2 SLP165 T02780211","FM-15","7","","","","","","","","","","","","","","","","","","","","","","","","","","","","2009-08-10"
"78543011640","2020-05-15T21:53:00","FM-15","7","","","","","","","","","","","","","","","","","","","","","","","","","","","","","","","","","","","","","","30.02","70","82","0.00","","","","67","30.02","SCT:04 30 BKN:07 70","30.01","10.00","74","100","","11","","","","","","","","","","","","","","","","","","","","","","","","","","","","","","","","","","","","","MET10005/15/20 21:53:01 METAR TIST 160153Z 10010KT 10SM SCT030 BKN070 28/21 A3002 RMK AO2 SLP167 T02780211","FM-15","7","","","","","","","","","","","","","","","","","","","","","","","","","","","","2009-08-10"
"78543011640","2020-05-15T22:53:00","FM-15","7","","","","","","","","","","","","","","","","","","","","","","","","","","","","","","","","","","","","","","30.04","71","82","0.00","","-0.03","1","69","30.03","FEW:02 26 FEW:02 70","30.03","10.00","75","110","","11","","","","","","","","","","","","","","","","","","","","","","","","","","","","","","","","","","","","","MET10605/15/20 22:53:01 METAR TIST 160253Z 11010KT 10SM FEW026 FEW070 28/22 A3004 RMK AO2 SLP171 T02780217 51011","FM-15","7","","","","","","","","","","","","","","","","","","","","","","","","","","","","2009-08-10"
"78543011640","2020-05-15T23:53:00","FM-15","7","","","","","","","","","","","","","","","","","","","","","","","","","","","","","","","","","","","","","","30.04","71","82","0.00","","","","69","30.04","FEW:02 27","30.03","10.00","75","120","","16","","","","","","","","","","","","","","","","","","","","","","","","","","","","","","","","","","","","","MET10305/15/20 23:53:02 METAR TIST 160353Z 12014KT 10SM FEW027 28/22 A3004 RMK AO2 SLP172 T02780217 403060256","FM-15","7","","","","","","","","","","","","","","","","","","","","","","","","","","","","2009-08-10"
"78543011640","2020-05-15T23:59:00","SOD  ","6","","","","","","","","","","","","","","","70","83","65","30.02","30.00","74","13.5","18","1.2","0","87","78","110","26","T","","","130","20","","","","","","","","","","","","","","","","","","","","","","","","","","","","","","","","","","","","","","","","","","","","","","","","","","","","","","","","","SOD73024 HR PRECIPITATION (IN):T     24 HR MAX TEMP (F):87 24 HR MAX TEMP TIME (LST):1548 24 HR MIN TEMP (F):78 24 HR MIN TEMP TIME (LST):0228 AVERAGE STATION PRESSURE:30.000 MINIMUM SEA LEVEL PRESSURE:29.98 TIME OF OCCURRENCE:1723 PEAK WIND SPEED (MPH):26  PEAK WIND DIR (DEG):110 PEAK WIND TIME (LST):2318  FASTEST 2MIN SPEED (MPH):20 FASTEST 2MIN DIR (DEG):130 FASTEST 2MIN TIME (LST):1149 AVERAGE WIND SPEED (MPH):13.5 24 HR AVG TEMP (F):83 HEATING DEGREE DAYS:0   COOLING DEGREE DAYS:18  LATEST DAY MAX TEMP (0700-1900 LST):87  LATEST NIGHT MIN TEMP(1900-0800 LST):78 HOURLY INCREMENTAL PRECIPITATION VALUES (IN):.00 T    0.00 0.00 0.00 0.00 T    0.00 0.00 0.00 0.00 0.00 0.00 0.00 0.00 0.00 0.00 0.00 0.00 0.00 0.00 0.00 0.00 0.00","SOD  ","6","","","","","","","","","","","","","","","","","","","","","","","","","0546","1847","","2009-08-10"
"78543011640","2020-05-16T00:53:00","FM-15","7","","","","","","","","","","","","","","","","","","","","","","","","","","","","","","","","","","","","","","30.02","71","82","0.00","","","","69","30.02","FEW:02 27 SCT:04 36 OVC:08 85","30.01","10.00","74","110","","18","","","","","","","","","","","","","","","","","","","","","","","","","","","","","","","","","","","","","MET10705/16/20 00:53:02 METAR TIST 160453Z 11016KT 10SM FEW027 SCT036 OVC085 28/22 A3002 RMK AO2 SLP166 T02780217","FM-15","7","","","","","","","","","","","","","","","","","","","","","","","","","","","","2009-08-10"
"78543011640","2020-05-16T01:51:00","FM-16","6","","","","","","","","","","","","","","","","","","","","","","","","","","","","","","","","","","","","","","30.01","73","79","","","","","84","","FEW:02 23 BKN:07 28 BKN:07 80","30.00","10.00","75","080","","8","","","","","","","","","","","","","","","","","","","","","","","","","","","","","","","","","","","","","MET11005/16/20 01:51:02 SPECI TIST 160551Z 08007KT 10SM FEW023 BKN028 BKN080 26/23 A3001 RMK AO2 RAB35E46 P0000 FIBI","FM-16","6","","","","","","","","","","","","","","","","","","","","","","","","","","","","2009-08-10"
"78543011640","2020-05-16T01:53:00","FM-15","7","","","","","","","","","","","","","","","","","","","","","","","","","","","","","","","","","","","","","","30.01","73","79","T","","+0.03","8","82","30.01","FEW:02 23 SCT:04 28 BKN:07 80","30.00","10.00","75","090","","7","","","","","","","","","","","","","","","","","","","","","","","","","","","","","","","","","","","","","MET14605/16/20 01:53:02 METAR TIST 160553Z 09006KT 10SM FEW023 SCT028 BKN080 26/23 A3001 RMK AO2 RAB35E46 SLP161 P0000 60000 T02610228 10283 20261 58010","FM-15","7","","","","","","","","","","","","","","","","","","","","","","","","","","","","2009-08-10"
"78543011640","2020-05-16T02:00:00","FM-12","4","","","","","","","","","","","","","","","","","","","","","","","","","","","","","","","","","","","","","","","73","79","","","+0.03","8","82","30.01","26","","9.94","","090","","7","","","","","","","","","","","","","","","","","","","","","","","","","","","","","","","","","","","","","SYN08678543 15566 60906 10261 20228 30082 40161 58010 69901 90553 333 10283 20256 555 91606=","FM-12","4","","","","","","","","","","","","","","","","","","","","","","","","","","","","2009-08-10"
"78543011640","2020-05-16T02:53:00","FM-15","7","","","","","","","","","","","","","","","","","","","","","","","","","","","","","","","","","","","","","","30.00","69","80","0.00","","","","69","30.00","FEW:02 33 FEW:02 45 SCT:04 80","29.99","10.00","73","110","26","17","","","","","","","","","","","","","","","","","","","","","","","","","","","","","","","","","","","","","MET11005/16/20 02:53:02 METAR TIST 160653Z 11015G23KT 10SM FEW033 FEW045 SCT080 27/21 A3000 RMK AO2 SLP160 T02670206","FM-15","7","","","","","","","","","","","","","","","","","","","","","","","","","","","","2009-08-10"
"78543011640","2020-05-16T03:51:00","FM-15","4","","","","","","","","","","","","","","","","","","","","","","","","","","","","","","","","","","","","","","30.00","72","81","","","","","74","","BKN:07 26 BKN:07 37 OVC:08 90","","10.00","","110","","16","","","","","","","","","","","","","","","","","","","","","","","","","","","","","","","","","","","","","MET078METAR TIST 160751Z AUTO 11014KT 10SM BKN026 BKN037 OVC090 27/22 A3000 RMK AO2=","FM-15","4","","","","","","","","","","","","","","","","","","","","","","","","","","","","2009-08-10"
"78543011640","2020-05-16T03:51:00","FM-16","4","","","","","","","","","","","","","","","","","","","","","","","","","","","","","","","","","","","","","","30.00","72","81","","","","","74","","BKN:07 26 BKN:07 37 OVC:08 90","","10.00","","110","","16","","","","","","","","","","","","","","","","","","","","","","","","","","","","","","","","","","","","","MET078SPECI TIST 160751Z AUTO 11014KT 10SM BKN026 BKN037 OVC090 27/22 A3000 RMK AO2=","FM-16","4","","","","","","","","","","","","","","","","","","","","","","","","","","","","2009-08-10"
"78543011640","2020-05-16T03:53:00","FM-15","7","","","","","","","","","","","","","","","","","","","","","","","","","","","","","","","","","","","","","","30.00","71","81","0.00","","","","72","30.00","BKN:07 26 BKN:07 37 BKN:07 90","29.99","10.00","74","120","","16","","","","","","","","","","","","","","","","","","","","","","","","","","","","","","","","","","","","","MET10705/16/20 03:53:02 METAR TIST 160753Z 12014KT 10SM BKN026 BKN037 BKN090 27/22 A3000 RMK AO2 SLP159 T02720217","FM-15","7","","","","","","","","","","","","","","","","","","","","","","","","","","","","2009-08-10"
"78543011640","2020-05-16T04:01:00","FM-15","4","","","","","","","","","","","","","","","","","","","","","","","","","","","","","","","","","","","","","","30.00","71","81","","","","","72","","SCT:04 26 SCT:04 37 BKN:07 90","","10.00","","110","","16","","","","","","","","","","","","","","","","","","","","","","","","","","","","","","","","","","","","","MET088METAR TIST 160801Z AUTO 11014KT 10SM SCT026 SCT037 BKN090 27/22 A3000 RMK AO2 T02720217=","FM-15","4","","","","","","","","","","","","","","","","","","","","","","","","","","","","2009-08-10"
"78543011640","2020-05-16T04:01:00","FM-16","4","","","","","","","","","","","","","","","","","","","","","","","","","","","","","","","","","","","","","","30.00","71","81","","","","","72","","SCT:04 26 SCT:04 37 BKN:07 90","","10.00","","110","","16","","","","","","","","","","","","","","","","","","","","","","","","","","","","","","","","","","","","","MET088SPECI TIST 160801Z AUTO 11014KT 10SM SCT026 SCT037 BKN090 27/22 A3000 RMK AO2 T02720217=","FM-16","4","","","","","","","","","","","","","","","","","","","","","","","","","","","","2009-08-10"
"78543011640","2020-05-16T04:53:00","FM-15","7","","","","","","","","","","","","","","","","","","","","","","","","","","","","","","","","","","","","","","30.00","70","81","0.00","","+0.00","5","69","30.00","FEW:02 26","29.99","10.00","74","120","","14","","","","","","","","","","","","","","","","","","","","","","","","","","","","","","","","","","","","","MET09905/16/20 04:53:02 METAR TIST 160853Z 12012KT 10SM FEW026 27/21 A3000 RMK AO2 SLP160 T02720211 55000","FM-15","7","","","","","","","","","","","","","","","","","","","","","","","","","","","","2009-08-10"
"78543011640","2020-05-16T05:51:00","FM-16","6","","","","","","","","","","","","","","","","","","","","","","","","","","","","","","","","","","","","","","30.02","70","81","","","","","70","","BKN:07 25 BKN:07 80","30.01","10.00","74","120","","16","","","","","","","","","","","","","","","","","","","","","","","","","","","","","","","","","","","","","MET08805/16/20 05:51:02 SPECI TIST 160951Z 12014KT 10SM BKN025 BKN080 27/21 A3002 RMK AO2 FIBI","FM-16","6","","","","","","","","","","","","","","","","","","","","","","","","","","","","2009-08-10"
"78543011640","2020-05-16T05:53:00","FM-15","7","","","","","","","","","","","","","","","","","","","","","","","","","","","","","","","","","","","","","","30.02","70","81","0.00","","","","69","30.01","SCT:04 25 SCT:04 30 BKN:07 80","30.01","10.00","74","110","","15","","","","","","","","","","","","","","","","","","","","","","","","","","","","","","","","","","","","","MET10705/16/20 05:53:02 METAR TIST 160953Z 11013KT 10SM SCT025 SCT030 BKN080 27/21 A3002 RMK AO2 SLP164 T02720211","FM-15","7","","","","","","","","","","","","","","","","","","","","","","","","","","","","2009-08-10"
"78543011640","2020-05-16T06:53:00","FM-15","7","","","","","","","","","","","","","","","","","","","","","","","","","","","","","","","","","","","","","","30.03","71","82","0.00","","","","69","30.03","CLR:00","30.02","10.00","75","110","","15","","","","","","","","","","","","","","","","","","","","","","","","","","","","","","","","","","","","","MET09005/16/20 06:53:02 METAR TIST 161053Z 11013KT 10SM CLR 28/22 A3003 RMK AO2 SLP168 T02780217","FM-15","7","","","","","","","","","","","","","","","","","","","","","","","","","","","","2009-08-10"
"78543011640","2020-05-16T07:53:00","FM-15","7","","","","","","","","","","","","","","","","","","","","","","","","","","","","","","","","","","","","","","30.04","70","82","0.00","","-0.04","1","67","30.04","FEW:02 30 BKN:07 80","30.03","10.00","74","120","","14","","","","","","","","","","","","","","","","","","","","","","","","","","","","","","","","","","","","","MET12505/16/20 07:53:02 METAR TIST 161153Z 12012KT 10SM FEW030 BKN080 28/21 A3004 RMK AO2 SLP172 T02780211 10283 20261 51012 $ (QQ)","FM-15","7","","","","","","","","","","","","","","","","","","","","","","","","","","","","2009-08-10"
"78543011640","2020-05-16T08:00:00","FM-12","4","","","","","","","","","","","","","","","","","","","","","","","","","","","","","","","","","","","","","","","70","82","","","-0.04","1","67","30.04","26","","9.94","","120","","14","","","","","","","","","","","","","","","","","","","","","","","","","","","","","","","","","","","","","SYN08078543 32566 61212 10278 20211 30092 40172 51012 91153 333 10306 20261 555 91612=","FM-12","4","","","","","","","","","","","","","","","","","","","","","","","","","","","","2009-08-10"
"78543011640","2020-05-16T08:53:00","FM-15","7","","","","","","","","","","","","","","","","","","","","","","","","","","","","","","","","","","","","","","30.04","70","84","0.00","","","","63","30.04","FEW:02 29","30.03","10.00","74","120","","13","","","","","","","","","","","","","","","","","","","","","","","","","","","","","","","","","","","","","MET10005/16/20 08:53:02 METAR TIST 161253Z 12011KT 10SM FEW029 29/21 A3004 RMK AO2 SLP174 T02890211 $ (QQ)","FM-15","7","","","","","","","","","","","","","","","","","","","","","","","","","","","","2009-08-10"
"78543011640","2020-05-16T09:53:00","FM-15","7","","","","","","","","","","","","","","","","","","","","","","","","","","","","","","","","","","","","","","30.06","70","85","0.00","","","","61","30.06","CLR:00","30.05","10.00","75","130","22","14","","","","","","","","","","","","","","","","","","","","","","","","","","","","","","","","","","","","","MET10005/16/20 09:53:02 METAR TIST 161353Z 13012G19KT 10SM CLR 29/21 A3006 RMK AO2 SLP179 T02940211 $ (TB)","FM-15","7","","","","","","","","","","","","","","","","","","","","","","","","","","","","2009-08-10"
"78543011640","2020-05-16T10:53:00","FM-15","7","","","","","","","","","","","","","","","","","","","","","","","","","","","","","","","","","","","","","","30.05","70","86","0.00","","-0.01","0","59","30.05","CLR:00","30.04","10.00","75","130","","15","","","","","","","","","","","","","","","","","","","","","","","","","","","","","","","","","","","","","MET10305/16/20 10:53:02 METAR TIST 161453Z 13013KT 10SM CLR 30/21 A3005 RMK AO2 SLP177 T03000211 50005 $ (TB)","FM-15","7","","","","","","","","","","","","","","","","","","","","","","","","","","","","2009-08-10"
"78543011640","2020-05-16T11:53:00","FM-15","7","","","","","","","","","","","","","","","","","","","","","","","","","","","","","","","","","","","","","","30.04","70","86","0.00","","","","59","30.04","SCT:04 80","30.03","10.00","75","110","","15","","","","","","","","","","","","","","","","","","","","","","","","","","","","","","","","","","","","","MET10005/16/20 11:53:02 METAR TIST 161553Z 11013KT 10SM SCT080 30/21 A3004 RMK AO2 SLP174 T03000211 $ (TB)","FM-15","7","","","","","","","","","","","","","","","","","","","","","","","","","","","","2009-08-10"
"78543011640","2020-05-16T12:53:00","FM-15","7","","","","","","","","","","","","","","","","","","","","","","","","","","","","","","","","","","","","","","30.03","71","87","0.00","","","","59","30.03","FEW:02 90","30.02","10.00","76","130","","15","","","","","","","","","","","","","","","","","","","","","","","","","","","","","","","","","","","","","MET10005/16/20 12:53:02 METAR TIST 161653Z 13013KT 10SM FEW090 31/22 A3003 RMK AO2 SLP168 T03060217 $ (TB)","FM-15","7","","","","","","","","","","","","","","","","","","","","","","","","","","","","2009-08-10"
"78543011640","2020-05-16T13:53:00","FM-15","7","","","","","","","","","","","","","","","","","","","","","","","","","","","","","","","","","","","","","","30.01","72","86","0.00","","+0.04","8","63","30.01","CLR:00","30.00","10.00","76","130","","14","","","","","","","","","","","","","","","","","","","","","","","","","","","","","","","","","","","","","MET11505/16/20 13:53:02 METAR TIST 161753Z 13012KT 10SM CLR 30/22 A3001 RMK AO2 SLP164 T03000222 10311 20278 58014 $ (CE)","FM-15","7","","","","","","","","","","","","","","","","","","","","","","","","","","","","2009-08-10"
"78543011640","2020-05-16T14:00:00","FM-12","4","","","","","","","","","","","","","","","","","","","","","","","","","","","","","","","","","","","","","","","72","86","","","+0.04","8","63","30.01","","","9.94","","130","","14","","","","","","","","","","","","","","","","","","","","","","","","","","","","","","","","","","","","","SYN08078543 32966 01312 10300 20222 30082 40164 58014 91753 333 10311 20278 555 91618=","FM-12","4","","","","","","","","","","","","","","","","","","","","","","","","","","","","2009-08-10"
"78543011640","2020-05-16T14:53:00","FM-15","7","","","","","","","","","","","","","","","","","","","","","","","","","","","","","","","","","","","","","","29.99","72","86","0.00","","","","63","29.99","CLR:00","29.98","10.00","76","120","","14","","","","","","","","","","","","","","","","","","","","","","","","","","","","","","","","","","","","","MET09705/16/20 14:53:02 METAR TIST 161853Z 12012KT 10SM CLR 30/22 A2999 RMK AO2 SLP156 T03000222 $ (CE)","FM-15","7","","","","","","","","","","","","","","","","","","","","","","","","","","","","2009-08-10"
"78543011640","2020-05-16T15:53:00","FM-15","7","","","","","","","","","","","","","","","","","","","","","","","","","","","","","","","","","","","","","","29.99","72","86","0.00","","","","63","29.99","CLR:00","29.98","10.00","76","120","","13","","","","","","","","","","","","","","","","","","","","","","","","","","","","","","","","","","","","","MET09705/16/20 15:53:02 METAR TIST 161953Z 12011KT 10SM CLR 30/22 A2999 RMK AO2 SLP156 T03000222 $ (CE)","FM-15","7","","","","","","","","","","","","","","","","","","","","","","","","","","","","2009-08-10"
"78543011640","2020-05-16T16:53:00","FM-15","7","","","","","","","","","","","","","","","","","","","","","","","","","","","","","","","","","","","","","","29.99","71","86","0.00","","+0.02","6","61","29.99","CLR:00","29.98","10.00","76","120","","14","","","","","","","","","","","","","","","","","","","","","","","","","","","","","","","","","","","","","MET10305/16/20 16:53:02 METAR TIST 162053Z 12012KT 10SM CLR 30/22 A2999 RMK AO2 SLP155 T03000217 56008 $ (CE)","FM-15","7","","","","","","","","","","","","","","","","","","","","","","","","","","","","2009-08-10"
"78543011640","2020-05-16T17:53:00","FM-15","7","","","","","","","","","","","","","","","","","","","","","","","","","","","","","","","","","","","","","","30.00","72","84","0.00","","","","67","30.00","FEW:02 25 SCT:04 31 SCT:04 42","29.99","10.00","76","100","20","13","","","","","","","","","","","","","","","","","","","","","","","","","","","","","","","","","","","","","MET11705/16/20 17:53:02 METAR TIST 162153Z 10011G17KT 10SM FEW025 SCT031 SCT042 29/22 A3000 RMK AO2 SLP158 T02890222 $ (CE)","FM-15","7","","","","","","","","","","","","","","","","","","","","","","","","","","","","2009-08-10"
"78543011640","2020-05-16T18:53:00","FM-15","7","","","","","","","","","","","","","","","","","","","","","","","","","","","","","","","","","","","","","","30.01","72","83","0.00","","","","70","30.01","SCT:04 25","30.00","10.00","75","090","","14","","","","","","","","","","","","","","","","","","","","","","","","","","","","","","","","","","","","","MET10005/16/20 18:53:02 METAR TIST 162253Z 09012KT 10SM SCT025 28/22 A3001 RMK AO2 SLP163 T02830222 $ (CE)","FM-15","7","","","","","","","","","","","","","","","","","","","","","","","","","","","","2009-08-10"
"78543011640","2020-05-16T19:53:00","FM-15","7","","","","","","","","","","","","","","","","","","","","","","","","","","","","","","","","","","","","","","30.03","71","82","0.00","","-0.04","3","69","30.03","CLR:00","30.02","10.00","75","100","","15","","","","","","","","","","","","","","","","","","","","","","","","","","","","","","","","","","","","","MET11505/16/20 19:53:02 METAR TIST 162353Z 10013KT 10SM CLR 28/22 A3003 RMK AO2 SLP168 T02780217 10311 20278 53013 $ (CE)","FM-15","7","","","","","","","","","","","","","","","","","","","","","","","","","","","","2009-08-10"
"78543011640","2020-05-16T20:00:00","FM-12","4","","","","","","","","","","","","","","","","","","","","","","","","","","","","","","","","","","","","","","","71","82","","","-0.04","3","69","30.03","","","9.94","","100","","15","","","","","","","","","","","","","","","","","","","","","","","","","","","","","","","","","","","","","SYN08078543 32966 01013 10278 20217 30088 40168 53013 92353 333 10311 20261 555 91700=","FM-12","4","","","","","","","","","","","","","","","","","","","","","","","","","","","","2009-08-10"
"78543011640","2020-05-16T20:53:00","FM-15","7","","","","","","","","","","","","","","","","","","","","","","","","","","","","","","","","","","","","","","30.04","72","82","0.00","","","","72","30.04","FEW:02 21","30.03","10.00","75","100","","11","","","","","","","","","","","","","","","","","","","","","","","","","","","","","","","","","","","","","MET09505/16/20 20:53:01 METAR TIST 170053Z 10010KT 10SM FEW021 28/22 A3004 RMK AO2 SLP172 T02780222 $","FM-15","7","","","","","","","","","","","","","","","","","","","","","","","","","","","","2009-08-10"
"78543011640","2020-05-16T21:53:00","FM-15","7","","","","","","","","","","","","","","","","","","","","","","","","","","","","","","","","","","","","","","30.04","73","82","0.00","","","","74","30.04","CLR:00","30.03","10.00","76","090","","11","","","","","","","","","","","","","","","","","","","","","","","","","","","","","","","","","","","","","MET09205/16/20 21:53:01 METAR TIST 170153Z 09010KT 10SM CLR 28/23 A3004 RMK AO2 SLP174 T02780228 $","FM-15","7","","","","","","","","","","","","","","","","","","","","","","","","","","","","2009-08-10"
"78543011640","2020-05-16T22:53:00","FM-15","7","","","","","","","","","","","","","","","","","","","","","","","","","","","","","","","","","","","","","","30.05","73","82","0.00","","-0.02","1","74","30.05","FEW:02 20","30.04","10.00","76","090","","10","","","","","","","","","","","","","","","","","","","","","","","","","","","","","","","","","","","","","MET10105/16/20 22:53:01 METAR TIST 170253Z 09009KT 10SM FEW020 28/23 A3005 RMK AO2 SLP176 T02780228 51008 $","FM-15","7","","","","","","","","","","","","","","","","","","","","","","","","","","","","2009-08-10"
"78543011640","2020-05-16T23:53:00","FM-15","7","","","","","","","","","","","","","","","","","","","","","","","","","","","","","","","","","","","","","","30.04","73","82","0.00","","","","74","30.04","FEW:02 23","30.03","10.00","76","110","","15","","","","","","","","","","","","","","","","","","","","","","","","","","","","","","","","","","","","","MET10505/16/20 23:53:02 METAR TIST 170353Z 11013KT 10SM FEW023 28/23 A3004 RMK AO2 SLP173 T02780228 403110261 $","FM-15","7","","","","","","","","","","","","","","","","","","","","","","","","","","","","2009-08-10"
"78543011640","2020-05-16T23:59:00","SOD  ","6","","","","","","","","","","","","","","","71","84","67","30.02","30.01","75","13.8","19","2.1","0","88","79","130","26","T","","","110","21","","","","","","","","","","","","","","","","","","","","","","","","","","","","","","","","","","","","","","","","","","","","","","","","","","","","","","","","","SOD73024 HR PRECIPITATION (IN):T     24 HR MAX TEMP (F):88 24 HR MAX TEMP TIME (LST):1429 24 HR MIN TEMP (F):79 24 HR MIN TEMP TIME (LST):0305 AVERAGE STATION PRESSURE:30.005 MINIMUM SEA LEVEL PRESSURE:29.98 TIME OF OCCURRENCE:1639 PEAK WIND SPEED (MPH):26  PEAK WIND DIR (DEG):130 PEAK WIND TIME (LST):0244  FASTEST 2MIN SPEED (MPH):21 FASTEST 2MIN DIR (DEG):110 FASTEST 2MIN TIME (LST):0247 AVERAGE WIND SPEED (MPH):13.8 24 HR AVG TEMP (F):84 HEATING DEGREE DAYS:0   COOLING DEGREE DAYS:19  LATEST DAY MAX TEMP (0700-1900 LST):88  LATEST NIGHT MIN TEMP(1900-0800 LST):79 HOURLY INCREMENTAL PRECIPITATION VALUES (IN):.00 T    0.00 0.00 0.00 0.00 0.00 0.00 0.00 0.00 0.00 0.00 0.00 0.00 0.00 0.00 0.00 0.00 0.00 0.00 0.00 0.00 0.00 0.00","SOD  ","6","","","","","","","","","","","","","","","","","","","","","","","","","0546","1847","","2009-08-10"